"grade","latlong","longitude","latitude","2005","2010","2015","stu_2015_2010","stu_2015_2005","stu_2015_2010_abs","stu_2015_2005_abs","name","address"
-1,"42.242 -71.123","-71.123","42.242",0,40,43,3,43,3,43,"Boston - Franklin D Roosevelt","95 Needham Road, Hyde Park, MA 02136"
-1,"42.250 -71.126","-71.126","42.250",0,0,119,119,119,119,119,"Boston Renaissance Charter Public (District) - Boston Renaissance Charter  Public School","1415 Hyde Park Ave, Hyde Park, MA 02136"
-1,"42.251 -71.133","-71.133","42.251",0,20,29,9,29,9,29,"Boston - William Ellery Channing","35 Sunnyside Street, Hyde Park, MA 02136"
-1,"42.263 -71.155","-71.155","42.263",0,44,43,-1,43,1,43,"Boston - Beethoven","5125 Washington Street, West Roxbury, MA 02132"
-1,"42.267 -71.105","-71.105","42.267",0,23,44,21,44,21,44,"Boston - James J Chittick","154 Ruskindale Road, Mattapan, MA 02126"
-1,"42.271 -71.092","-71.092","42.271",57,51,45,-6,-12,6,12,"Boston - Dr. Catherine Ellison-Rosa Parks Early Ed School","108 Babson Street, Mattapan, MA 02126"
-1,"42.271 -71.163","-71.163","42.271",0,50,40,-10,40,10,40,"Boston - Joyce Kilmer","35 Baker Street, West Roxbury, MA 02132"
-1,"42.274 -71.106","-71.106","42.274",48,51,97,46,49,46,49,"Boston - Mattahunt","100 Hebron Street, Mattapan, MA 02126"
-1,"42.274 -71.127","-71.127","42.274",37,29,21,-8,-16,8,16,"Boston - George H Conley","450 Poplar Street, Roslindale, MA 02131"
-1,"42.276 -71.066","-71.066","42.276",0,24,44,20,44,20,44,"Conservatory Lab Charter - Conservatory Lab Charter School","2120 Dorchester Avenue, Dorchester, MA 02124"
-1,"42.277 -71.077","-71.077","42.277",15,26,15,-11,0,11,0,"Boston - Charles H Taylor","1060 Morton Street, Mattapan, MA 02126"
-1,"42.277 -71.135","-71.135","42.277",0,12,20,8,20,8,20,"Boston - Phineas Bates","426 Beech Street, Roslindale, MA 02131"
-1,"42.281 -71.086","-71.086","42.281",0,0,52,52,52,52,52,"Boston - Pauline Agassiz Shaw Elementary School","429 Norfolk Street, Dorchester, MA 02124"
-1,"42.281 -71.093","-71.093","42.281",15,34,37,3,22,3,22,"Boston - Solomon Lewenberg Middle","20 Outlook Rd, Mattapan, MA 02126"
-1,"42.281 -71.141","-71.141","42.281",22,21,25,4,3,4,3,"Boston - Mozart","236 Beech Street, Roslindale, MA 02131"
-1,"42.282 -71.086","-71.086","42.282",7,0,0,0,-7,0,7,"Boston - Pauline Agassiz Shaw","429 Norfolk St, Dorchester, MA 02124"
-1,"42.282 -71.158","-71.158","42.282",0,44,65,21,65,21,65,"Boston - Lyndon","20 Mt. Vernon Street, West Roxbury, MA 02132"
-1,"42.285 -71.117","-71.117","42.285",0,0,9,9,9,9,9,"Boston - John D Philbrick","40 Philbrick Street, Roslindale, MA 02131"
-1,"42.286 -71.053","-71.053","42.286",0,31,27,-4,27,4,27,"Boston - Thomas J Kenny","19 Oakton Avenue, Dorchester, MA 02122"
-1,"42.286 -71.072","-71.072","42.286",42,58,58,0,16,0,16,"Boston - Emily A Fifield","25 Dunbar Ave, Dorchester, MA 02124"
-1,"42.286 -71.107","-71.107","42.286",0,21,29,8,29,8,29,"Boston - Dennis C Haley","570 American Legion Highway, Roslindale, MA 02131"
-1,"42.286 -71.126","-71.126","42.286",0,38,34,-4,34,4,34,"Boston - Charles Sumner","15 Basile Street, Roslindale, MA 02131"
-1,"42.292 -71.080","-71.080","42.292",34,9,52,43,18,43,18,"Boston - Joseph Lee","155 Talbot Avenue, Dorchester, MA 02124"
-1,"42.293 -71.053","-71.053","42.293",22,42,40,-2,18,2,18,"Neighborhood House Charter (District) - Neighborhood House Charter School","21 Queen Street, Dorchester, MA 02122"
-1,"42.293 -71.062","-71.062","42.293",34,29,33,4,-1,4,1,"Boston - Dr. William Henderson Lower","1669 Dorchester Avenue, Dorchester, MA 02122"
-1,"42.294 -71.049","-71.049","42.294",0,31,36,5,36,5,36,"Boston - Richard J Murphy","1 Worrell Street, Dorchester, MA 02122"
-1,"42.294 -71.115","-71.115","42.294",0,22,20,-2,20,2,20,"Boston - Boston Teachers Union School","25 Walk Hill Street, Jamaica Plain, MA 02130"
-1,"42.296 -71.072","-71.072","42.296",0,0,22,22,22,22,22,"Codman Academy Charter Public (District) - Codman Academy Charter Public School","637 Washington Street, Dorchester, MA 02124"
-1,"42.296 -71.074","-71.074","42.296",17,25,35,10,18,10,18,"Boston - O W Holmes","40 School Street, Dorchester, MA 02124"
-1,"42.296 -71.080","-71.080","42.296",49,47,42,-5,-7,5,7,"Boston - Sarah Greenwood","189 Glenway Street, Dorchester, MA 02121"
-1,"42.299 -71.070","-71.070","42.299",0,105,58,-47,58,47,58,"UP Academy Charter School of Dorchester (District) - UP Academy Charter School of Dorchester","35 Westville Street, Boston, MA 02124"
-1,"42.301 -71.085","-71.085","42.301",0,0,39,39,39,39,39,"Bridge Boston Charter School - Bridge Boston Charter School","2 McLellan Street, Dorchester, MA 02121"
-1,"42.305 -71.131","-71.131","42.305",0,0,13,13,13,13,13,"Boston - Joseph P Manning","130 Louders Lane, Jamaica Plain, MA 02130"
-1,"42.306 -71.073","-71.073","42.306",0,30,47,17,47,17,47,"Boston - UP Academy Holland","85 Olney Street, Dorchester, MA 02121"
-1,"42.307 -71.062","-71.062","42.307",0,62,59,-3,59,3,59,"Boston - Mather","1 Parish Street, Dorchester, MA 02122"
-1,"42.307 -71.113","-71.113","42.307",0,0,36,36,36,36,36,"Boston - Margarita Muniz Academy","20 Child Street, Boston, MA 02130"
-1,"42.307 -71.114","-71.114","42.307",40,31,0,-31,-40,31,40,"Boston - Agassiz","20 Child St, Jamaica Plain, MA 02130"
-1,"42.311 -71.071","-71.071","42.311",46,44,0,-44,-46,44,46,"Boston - ELC - East Zone","370 Columbia Rd, Dorchester, MA 02125"
-1,"42.311 -71.076","-71.076","42.311",0,37,61,24,61,24,61,"Boston - Martin Luther King Jr Mid","77 Lawrence Ave., Dorchester, MA 02121"
-1,"42.313 -71.098","-71.098","42.313",41,44,50,6,9,6,9,"Boston - Rafael Hernandez","61 School Street, Roxbury, MA 02119"
-1,"42.314 -71.059","-71.059","42.314",14,11,18,7,4,7,4,"Boston - Edward Everett","71 Pleasant Street, Dorchester, MA 02125"
-1,"42.315 -71.078","-71.078","42.315",65,52,43,-9,-22,9,22,"Boston - Haynes Early Education Center","263 Blue Hill Avenue, Roxbury , MA 02119"
-1,"42.315 -71.087","-71.087","42.315",10,3,48,45,38,45,38,"Boston - William Monroe Trotter","135 Humboldt Avenue, Dorchester, MA 02121"
-1,"42.316 -71.093","-71.093","42.316",0,31,48,17,48,17,48,"Boston - David A Ellis","302 Walnut Avenue, Roxbury, MA 02119"
-1,"42.316 -71.101","-71.101","42.316",0,34,33,-1,33,1,33,"Boston - Ellis Mendell","164 School Street, Roxbury, MA 02119"
-1,"42.317 -71.042","-71.042","42.317",0,23,40,17,40,17,40,"Boston - Paul A Dever","325 Mt Vernon Street, Dorchester, MA 02125"
-1,"42.317 -71.091","-71.091","42.317",5,0,29,29,24,29,24,"Boston - Higginson","160 Harrishof Street, Roxbury, MA 02119"
-1,"42.318 -71.075","-71.075","42.318",21,44,28,-16,7,16,7,"Boston - John Winthrop","35 Brookford Street, Dorchester, MA 02125"
-1,"42.318 -71.113","-71.113","42.318",0,52,70,18,70,18,70,"Boston - Mary E Curley Middle","493 Centre St, Jamaica Plain, MA 02130"
-1,"42.320 -71.059","-71.059","42.320",0,43,61,18,61,18,61,"Boston - William E Russell","750 Columbia Road, Dorchester, MA 02125"
-1,"42.321 -71.085","-71.085","42.321",0,28,5,-23,5,23,5,"Boston - Higginson/Lewis K-8","131 Walnut Avenue, Roxbury, MA 02119"
-1,"42.321 -71.106","-71.106","42.321",0,0,21,21,21,21,21,"Boston - John F Kennedy","7 Bolster Street, Jamaica Plain, MA 02130"
-1,"42.323 -71.058","-71.058","42.323",0,20,21,1,21,1,21,"Boston - Roger Clap","35 Harvest Street, Dorchester, MA 02125"
-1,"42.323 -71.073","-71.073","42.323",0,4,45,41,45,41,45,"Dudley Street Neighborhood Charter School - Dudley Street Neighborhood Charter School","6 Shirley Street, Boston, MA 02119"
-1,"42.325 -71.091","-71.091","42.325",0,24,18,-6,18,6,18,"Boston - Nathan Hale","51 Cedar Street, Roxbury, MA 02119"
-1,"42.326 -71.071","-71.071","42.326",26,30,23,-7,-3,7,3,"Boston - Samuel W Mason","150 Norfolk Avenue, Roxbury, MA 02119"
-1,"42.326 -71.106","-71.106","42.326",32,33,26,-7,-6,7,6,"Boston - James W Hennigan","200 Heath Street, Jamaica Plain, MA 02130"
-1,"42.330 -71.077","-71.077","42.330",0,25,51,26,51,26,51,"Boston - Orchard Gardens ","906 Albany Street, Roxbury, MA 02119"
-1,"42.332 -71.030","-71.030","42.332",0,21,15,-6,15,6,15,"Boston - Oliver Hazard Perry","745 E. 7th Street, South Boston, MA 02127"
-1,"42.333 -71.098","-71.098","42.333",0,13,13,0,13,0,13,"Boston - Maurice J Tobin","40 Smith St, Roxbury, MA 02120"
-1,"42.334 -71.038","-71.038","42.334",5,16,41,25,36,25,36,"Boston - Joseph P Tynan","650 E.  Fourth Street, South Boston, MA 02127"
-1,"42.338 -71.052","-71.052","42.338",66,62,73,11,7,11,7,"Boston - James Condon Elementary","200 D Street, South Boston, MA 02127"
-1,"42.339 -71.077","-71.077","42.339",6,27,29,2,23,2,23,"Boston - Joseph J Hurley","70 Worcester Street, Boston, MA 02118"
-1,"42.340 -71.073","-71.073","42.340",41,60,72,12,31,12,31,"Boston - Blackstone","380 Shawmut Avenue, Boston, MA 02118"
-1,"42.341 -71.140","-71.140","42.341",89,63,69,6,-20,6,20,"Boston - Baldwin Early Learning Center","121 Corey Road, Brighton, MA 02135"
-1,"42.345 -71.160","-71.160","42.345",0,34,27,-7,27,7,27,"Boston - Thomas A Edison Jr High","60 Glenmont Road, Brighton, MA 02135"
-1,"42.347 -71.064","-71.064","42.347",30,36,44,8,14,8,14,"Boston - Josiah Quincy","885 Washington Street, Boston, MA 02111"
-1,"42.347 -71.154","-71.154","42.347",20,34,26,-8,6,8,6,"Boston - Winship Elementary","54 Dighton Street, Brighton, MA 02135"
-1,"42.351 -71.137","-71.137","42.351",22,44,60,16,38,16,38,"Boston - Horace Mann School for the Deaf","40 Armington  Street, Allston, MA 02134"
-1,"42.352 -71.120","-71.120","42.352",0,0,53,53,53,53,53,"Media and Technology Charter - Media and Technology Charter School","1001 Commonwealth Avenue, Boston, MA 02215"
-1,"42.360 -71.133","-71.133","42.360",0,20,9,-11,9,11,9,"Boston - Thomas Gardner","30 Athol Street, Allston, MA 02134"
-1,"42.365 -71.034","-71.034","42.365",4,44,45,1,41,1,41,"Boston - Samuel Adams","165 Webster Street, East Boston, MA 02128"
-1,"42.366 -71.053","-71.053","42.366",0,29,35,6,35,6,35,"Boston - Eliot Elementary","16 Charter Street, Boston, MA 02113"
-1,"42.375 -71.033","-71.033","42.375",0,30,41,11,41,11,41,"Boston - James Otis","218 Marion Street, East Boston, MA 02128"
-1,"42.376 -71.057","-71.057","42.376",5,37,28,-9,23,9,23,"Boston - Harvard-Kent","50 Bunker Hill Street, Charlestown, MA 02129"
-1,"42.378 -71.030","-71.030","42.378",0,25,30,5,30,5,30,"Boston - Patrick J Kennedy","343 Saratoga Street, East Boston, MA 02128"
-1,"42.378 -71.038","-71.038","42.378",0,22,20,-2,20,2,20,"Boston - Hugh Roe ODonnell","33 Trenton Street, East Boston, MA 02128"
-1,"42.378 -71.064","-71.064","42.378",0,3,4,1,4,1,4,"Boston - Warren-Prescott","50 School Street, Charlestown, MA 02129"
-1,"42.388 -71.004","-71.004","42.388",0,0,20,20,20,20,20,"Boston - Curtis Guild","195 Leyden Street, East Boston, MA 02128"
-1,"42.391 -71.005","-71.005","42.391",22,27,43,16,21,16,21,"Boston - Manassah E Bradley","110 Beachview Road, East Boston, MA 02128"
-1,"42.391 -71.027","-71.027","42.391",62,59,74,15,12,15,12,"Boston - East Boston Early Childhood Center","135 Grove Street, East Boston, MA 02128"
-1,"42.392 -71.031","-71.031","42.392",0,0,26,26,26,26,26,"Boston - Dante Alighieri","37 Grove Street, East Boston, MA 02128"
0,"42.242 -71.123","-71.123","42.242",42,42,42,0,0,0,0,"Boston - Franklin D Roosevelt","95 Needham Road, Hyde Park, MA 02136"
0,"42.250 -71.126","-71.126","42.250",282,354,116,-238,-166,238,166,"Boston Renaissance Charter Public (District) - Boston Renaissance Charter  Public School","1415 Hyde Park Ave, Hyde Park, MA 02136"
0,"42.251 -71.133","-71.133","42.251",40,45,31,-14,-9,14,9,"Boston - William Ellery Channing","35 Sunnyside Street, Hyde Park, MA 02136"
0,"42.256 -71.126","-71.126","42.256",39,43,55,12,16,12,16,"Boston - Henry Grew","40 Gordon Avenue, Hyde Park, MA 02136"
0,"42.261 -71.148","-71.148","42.261",73,44,0,-44,-73,44,73,"Boston - William H Ohrenberger","175 West  Boundary Road, West Roxbury, MA 02132"
0,"42.263 -71.155","-71.155","42.263",43,46,93,47,50,47,50,"Boston - Beethoven","5125 Washington Street, West Roxbury, MA 02132"
0,"42.265 -71.117","-71.117","42.265",56,40,51,11,-5,11,5,"Boston - Elihu Greenwood Leadership Academy","612 Metropolitan Avenue, Hyde Park, MA 02136"
0,"42.267 -71.105","-71.105","42.267",43,43,37,-6,-6,6,6,"Boston - James J Chittick","154 Ruskindale Road, Mattapan, MA 02126"
0,"42.271 -71.092","-71.092","42.271",61,31,38,7,-23,7,23,"Boston - Dr. Catherine Ellison-Rosa Parks Early Ed School","108 Babson Street, Mattapan, MA 02126"
0,"42.271 -71.163","-71.163","42.271",44,44,46,2,2,2,2,"Boston - Joyce Kilmer","35 Baker Street, West Roxbury, MA 02132"
0,"42.274 -71.106","-71.106","42.274",75,66,100,34,25,34,25,"Boston - Mattahunt","100 Hebron Street, Mattapan, MA 02126"
0,"42.274 -71.127","-71.127","42.274",29,31,19,-12,-10,12,10,"Boston - George H Conley","450 Poplar Street, Roslindale, MA 02131"
0,"42.275 -71.091","-71.091","42.275",0,0,42,42,42,42,42,"Boston - Mildred Avenue K-8","5 Mildred Avenue, Mattapan, MA 02126"
0,"42.276 -71.066","-71.066","42.276",23,26,52,26,29,26,29,"Conservatory Lab Charter - Conservatory Lab Charter School","2120 Dorchester Avenue, Dorchester, MA 02124"
0,"42.277 -71.077","-71.077","42.277",59,76,110,34,51,34,51,"Boston - Charles H Taylor","1060 Morton Street, Mattapan, MA 02126"
0,"42.277 -71.135","-71.135","42.277",42,44,34,-10,-8,10,8,"Boston - Phineas Bates","426 Beech Street, Roslindale, MA 02131"
0,"42.281 -71.086","-71.086","42.281",0,0,54,54,54,54,54,"Boston - Pauline Agassiz Shaw Elementary School","429 Norfolk Street, Dorchester, MA 02124"
0,"42.281 -71.093","-71.093","42.281",24,53,43,-10,19,10,19,"Boston - Solomon Lewenberg Middle","20 Outlook Rd, Mattapan, MA 02126"
0,"42.281 -71.122","-71.122","42.281",0,64,60,-4,60,4,60,"Edward Brooke Charter - Edward Brooke Charter School","190 Cummins Highway, Roslindale, MA 02131"
0,"42.281 -71.141","-71.141","42.281",24,22,24,2,0,2,0,"Boston - Mozart","236 Beech Street, Roslindale, MA 02131"
0,"42.282 -71.086","-71.086","42.282",45,0,0,0,-45,0,45,"Boston - Pauline Agassiz Shaw","429 Norfolk St, Dorchester, MA 02124"
0,"42.282 -71.158","-71.158","42.282",52,50,42,-8,-10,8,10,"Boston - Lyndon","20 Mt. Vernon Street, West Roxbury, MA 02132"
0,"42.285 -71.117","-71.117","42.285",26,25,31,6,5,6,5,"Boston - John D Philbrick","40 Philbrick Street, Roslindale, MA 02131"
0,"42.286 -71.053","-71.053","42.286",21,23,43,20,22,20,22,"Boston - Thomas J Kenny","19 Oakton Avenue, Dorchester, MA 02122"
0,"42.286 -71.072","-71.072","42.286",82,84,78,-6,-4,6,4,"Boston - Emily A Fifield","25 Dunbar Ave, Dorchester, MA 02124"
0,"42.286 -71.107","-71.107","42.286",50,43,46,3,-4,3,4,"Boston - Dennis C Haley","570 American Legion Highway, Roslindale, MA 02131"
0,"42.286 -71.126","-71.126","42.286",74,78,96,18,22,18,22,"Boston - Charles Sumner","15 Basile Street, Roslindale, MA 02131"
0,"42.292 -71.080","-71.080","42.292",41,48,53,5,12,5,12,"Boston - Joseph Lee","155 Talbot Avenue, Dorchester, MA 02124"
0,"42.293 -71.053","-71.053","42.293",44,42,40,-2,-4,2,4,"Neighborhood House Charter (District) - Neighborhood House Charter School","21 Queen Street, Dorchester, MA 02122"
0,"42.293 -71.062","-71.062","42.293",22,45,46,1,24,1,24,"Boston - Dr. William Henderson Lower","1669 Dorchester Avenue, Dorchester, MA 02122"
0,"42.294 -71.049","-71.049","42.294",73,64,62,-2,-11,2,11,"Boston - Richard J Murphy","1 Worrell Street, Dorchester, MA 02122"
0,"42.294 -71.115","-71.115","42.294",0,27,24,-3,24,3,24,"Boston - Boston Teachers Union School","25 Walk Hill Street, Jamaica Plain, MA 02130"
0,"42.295 -71.071","-71.071","42.295",22,0,0,0,-22,0,22,"Boston - Lucy Stone","22 Regina Rd, Dorchester, MA 02124"
0,"42.295 -71.091","-71.091","42.295",0,0,60,60,60,60,60,"Brooke Charter School Mattapan - Brooke Charter School Mattapan","150 American Legion Highway, Boston, MA 02124"
0,"42.296 -71.072","-71.072","42.296",0,0,23,23,23,23,23,"Codman Academy Charter Public (District) - Codman Academy Charter Public School","637 Washington Street, Dorchester, MA 02124"
0,"42.296 -71.074","-71.074","42.296",29,30,48,18,19,18,19,"Boston - O W Holmes","40 School Street, Dorchester, MA 02124"
0,"42.296 -71.080","-71.080","42.296",43,46,41,-5,-2,5,2,"Boston - Sarah Greenwood","189 Glenway Street, Dorchester, MA 02121"
0,"42.299 -71.070","-71.070","42.299",97,102,62,-40,-35,40,35,"UP Academy Charter School of Dorchester (District) - UP Academy Charter School of Dorchester","35 Westville Street, Boston, MA 02124"
0,"42.301 -71.085","-71.085","42.301",0,0,40,40,40,40,40,"Bridge Boston Charter School - Bridge Boston Charter School","2 McLellan Street, Dorchester, MA 02121"
0,"42.305 -71.131","-71.131","42.305",22,24,22,-2,0,2,0,"Boston - Joseph P Manning","130 Louders Lane, Jamaica Plain, MA 02130"
0,"42.306 -71.073","-71.073","42.306",93,93,112,19,19,19,19,"Boston - UP Academy Holland","85 Olney Street, Dorchester, MA 02121"
0,"42.307 -71.062","-71.062","42.307",55,83,89,6,34,6,34,"Boston - Mather","1 Parish Street, Dorchester, MA 02122"
0,"42.307 -71.113","-71.113","42.307",19,16,26,10,7,10,7,"Boston - Margarita Muniz Academy","20 Child Street, Boston, MA 02130"
0,"42.307 -71.114","-71.114","42.307",92,75,0,-75,-92,75,92,"Boston - Agassiz","20 Child St, Jamaica Plain, MA 02130"
0,"42.311 -71.071","-71.071","42.311",44,42,0,-42,-44,42,44,"Boston - ELC - East Zone","370 Columbia Rd, Dorchester, MA 02125"
0,"42.311 -71.073","-71.073","42.311",43,0,0,0,-43,0,43,"Boston - Quincy E Dickerman","206 Magnolia St, Dorchester, MA 02121"
0,"42.311 -71.076","-71.076","42.311",0,54,70,16,70,16,70,"Boston - Martin Luther King Jr Mid","77 Lawrence Ave., Dorchester, MA 02121"
0,"42.313 -71.098","-71.098","42.313",49,49,51,2,2,2,2,"Boston - Rafael Hernandez","61 School Street, Roxbury, MA 02119"
0,"42.314 -71.059","-71.059","42.314",42,37,37,0,-5,0,5,"Boston - Edward Everett","71 Pleasant Street, Dorchester, MA 02125"
0,"42.315 -71.078","-71.078","42.315",71,62,65,3,-6,3,6,"Boston - Haynes Early Education Center","263 Blue Hill Avenue, Roxbury , MA 02119"
0,"42.315 -71.087","-71.087","42.315",71,48,65,17,-6,17,6,"Boston - William Monroe Trotter","135 Humboldt Avenue, Dorchester, MA 02121"
0,"42.316 -71.093","-71.093","42.316",42,43,88,45,46,45,46,"Boston - David A Ellis","302 Walnut Avenue, Roxbury, MA 02119"
0,"42.316 -71.101","-71.101","42.316",22,30,38,8,16,8,16,"Boston - Ellis Mendell","164 School Street, Roxbury, MA 02119"
0,"42.317 -71.042","-71.042","42.317",85,72,60,-12,-25,12,25,"Boston - Paul A Dever","325 Mt Vernon Street, Dorchester, MA 02125"
0,"42.317 -71.081","-71.081","42.317",0,0,72,72,72,72,72,"KIPP Academy Boston Charter School (District) - KIPP Academy Boston Charter School","384 Warren Street, Boston, MA 02119"
0,"42.317 -71.091","-71.091","42.317",30,0,42,42,12,42,12,"Boston - Higginson","160 Harrishof Street, Roxbury, MA 02119"
0,"42.318 -71.075","-71.075","42.318",43,46,61,15,18,15,18,"Boston - John Winthrop","35 Brookford Street, Dorchester, MA 02125"
0,"42.318 -71.113","-71.113","42.318",40,59,80,21,40,21,40,"Boston - Mary E Curley Middle","493 Centre St, Jamaica Plain, MA 02130"
0,"42.320 -71.059","-71.059","42.320",58,57,58,1,0,1,0,"Boston - William E Russell","750 Columbia Road, Dorchester, MA 02125"
0,"42.321 -71.085","-71.085","42.321",0,41,70,29,70,29,70,"Boston - Higginson/Lewis K-8","131 Walnut Avenue, Roxbury, MA 02119"
0,"42.321 -71.106","-71.106","42.321",38,56,61,5,23,5,23,"Boston - John F Kennedy","7 Bolster Street, Jamaica Plain, MA 02130"
0,"42.323 -71.058","-71.058","42.323",17,21,39,18,22,18,22,"Boston - Roger Clap","35 Harvest Street, Dorchester, MA 02125"
0,"42.323 -71.073","-71.073","42.323",23,33,44,11,21,11,21,"Dudley Street Neighborhood Charter School - Dudley Street Neighborhood Charter School","6 Shirley Street, Boston, MA 02119"
0,"42.325 -71.091","-71.091","42.325",21,23,20,-3,-1,3,1,"Boston - Nathan Hale","51 Cedar Street, Roxbury, MA 02119"
0,"42.326 -71.071","-71.071","42.326",38,31,36,5,-2,5,2,"Boston - Samuel W Mason","150 Norfolk Avenue, Roxbury, MA 02119"
0,"42.326 -71.106","-71.106","42.326",83,64,82,18,-1,18,1,"Boston - James W Hennigan","200 Heath Street, Jamaica Plain, MA 02130"
0,"42.330 -71.077","-71.077","42.330",63,63,77,14,14,14,14,"Boston - Orchard Gardens ","906 Albany Street, Roxbury, MA 02119"
0,"42.331 -71.050","-71.050","42.331",44,41,39,-2,-5,2,5,"Boston - Michael J Perkins","50 Burke Street, South Boston, MA 02127"
0,"42.332 -71.030","-71.030","42.332",28,22,28,6,0,6,0,"Boston - Oliver Hazard Perry","745 E. 7th Street, South Boston, MA 02127"
0,"42.333 -71.098","-71.098","42.333",38,42,77,35,39,35,39,"Boston - Maurice J Tobin","40 Smith St, Roxbury, MA 02120"
0,"42.334 -71.038","-71.038","42.334",46,68,53,-15,7,15,7,"Boston - Joseph P Tynan","650 E.  Fourth Street, South Boston, MA 02127"
0,"42.334 -71.106","-71.106","42.334",22,25,0,-25,-22,25,22,"Boston - Farragut","10 Fenwood Road, Boston, MA 02115"
0,"42.338 -71.052","-71.052","42.338",84,89,95,6,11,6,11,"Boston - James Condon Elementary","200 D Street, South Boston, MA 02127"
0,"42.339 -71.077","-71.077","42.339",57,42,43,1,-14,1,14,"Boston - Joseph J Hurley","70 Worcester Street, Boston, MA 02118"
0,"42.340 -71.073","-71.073","42.340",93,91,72,-19,-21,19,21,"Boston - Blackstone","380 Shawmut Avenue, Boston, MA 02118"
0,"42.340 -71.154","-71.154","42.340",29,0,0,0,-29,0,29,"Boston - Alexander Hamilton","198 Strathmore Rd, Brighton, MA 02135"
0,"42.341 -71.140","-71.140","42.341",37,36,45,9,8,9,8,"Boston - Baldwin Early Learning Center","121 Corey Road, Brighton, MA 02135"
0,"42.344 -71.073","-71.073","42.344",0,0,2,2,2,2,2,"Boston - William McKinley","90 Warren Avenue, Boston, MA 02116"
0,"42.345 -71.160","-71.160","42.345",0,44,49,5,49,5,49,"Boston - Thomas A Edison Jr High","60 Glenmont Road, Brighton, MA 02135"
0,"42.347 -71.064","-71.064","42.347",120,120,114,-6,-6,6,6,"Boston - Josiah Quincy","885 Washington Street, Boston, MA 02111"
0,"42.347 -71.154","-71.154","42.347",26,48,52,4,26,4,26,"Boston - Winship Elementary","54 Dighton Street, Brighton, MA 02135"
0,"42.351 -71.137","-71.137","42.351",87,85,85,0,-2,0,2,"Boston - Horace Mann School for the Deaf","40 Armington  Street, Allston, MA 02134"
0,"42.351 -71.161","-71.161","42.351",13,9,13,4,0,4,0,"Boston - Lyon K-8","50 Beechcroft Street, Brighton, MA 02135"
0,"42.352 -71.120","-71.120","42.352",0,0,54,54,54,54,54,"Media and Technology Charter - Media and Technology Charter School","1001 Commonwealth Avenue, Boston, MA 02215"
0,"42.352 -71.160","-71.160","42.352",40,0,0,0,-40,0,40,"Boston - Lyon Upper 9-12","95 Beechcroft Street, Brighton, MA 02135"
0,"42.360 -71.133","-71.133","42.360",52,60,39,-21,-13,21,13,"Boston - Thomas Gardner","30 Athol Street, Allston, MA 02134"
0,"42.365 -71.034","-71.034","42.365",44,46,56,10,12,10,12,"Boston - Samuel Adams","165 Webster Street, East Boston, MA 02128"
0,"42.366 -71.053","-71.053","42.366",21,35,74,39,53,39,53,"Boston - Eliot Elementary","16 Charter Street, Boston, MA 02113"
0,"42.375 -71.033","-71.033","42.375",27,53,57,4,30,4,30,"Boston - James Otis","218 Marion Street, East Boston, MA 02128"
0,"42.376 -71.057","-71.057","42.376",74,61,76,15,2,15,2,"Boston - Harvard-Kent","50 Bunker Hill Street, Charlestown, MA 02129"
0,"42.378 -71.030","-71.030","42.378",20,49,42,-7,22,7,22,"Boston - Patrick J Kennedy","343 Saratoga Street, East Boston, MA 02128"
0,"42.378 -71.038","-71.038","42.378",43,46,43,-3,0,3,0,"Boston - Hugh Roe ODonnell","33 Trenton Street, East Boston, MA 02128"
0,"42.378 -71.040","-71.040","42.378",0,0,64,64,64,64,64,"Boston - Mario Umana Middle School Academy","312 Border St, East Boston, MA 02128"
0,"42.378 -71.064","-71.064","42.378",44,64,69,5,25,5,25,"Boston - Warren-Prescott","50 School Street, Charlestown, MA 02129"
0,"42.382 -71.016","-71.016","42.382",0,0,61,61,61,61,61,"Brooke Charter School East Boston - Brooke Charter School East Boston","94 Horace, East Boston, MA 02128"
0,"42.388 -71.004","-71.004","42.388",40,53,52,-1,12,1,12,"Boston - Curtis Guild","195 Leyden Street, East Boston, MA 02128"
0,"42.390 -71.027","-71.027","42.390",64,65,64,-1,0,1,0,"Boston - Donald Mckay","122 Cottage Street, East Boston, MA 02128"
0,"42.391 -71.005","-71.005","42.391",22,26,37,11,15,11,15,"Boston - Manassah E Bradley","110 Beachview Road, East Boston, MA 02128"
0,"42.391 -71.027","-71.027","42.391",68,54,58,4,-10,4,10,"Boston - East Boston Early Childhood Center","135 Grove Street, East Boston, MA 02128"
0,"42.392 -71.031","-71.031","42.392",22,22,14,-8,-8,8,8,"Boston - Dante Alighieri","37 Grove Street, East Boston, MA 02128"
1,"42.242 -71.123","-71.123","42.242",42,41,42,1,0,1,0,"Boston - Franklin D Roosevelt","95 Needham Road, Hyde Park, MA 02136"
1,"42.250 -71.126","-71.126","42.250",147,190,124,-66,-23,66,23,"Boston Renaissance Charter Public (District) - Boston Renaissance Charter  Public School","1415 Hyde Park Ave, Hyde Park, MA 02136"
1,"42.251 -71.133","-71.133","42.251",42,48,41,-7,-1,7,1,"Boston - William Ellery Channing","35 Sunnyside Street, Hyde Park, MA 02136"
1,"42.256 -71.126","-71.126","42.256",41,41,45,4,4,4,4,"Boston - Henry Grew","40 Gordon Avenue, Hyde Park, MA 02136"
1,"42.261 -71.148","-71.148","42.261",85,51,0,-51,-85,51,85,"Boston - William H Ohrenberger","175 West  Boundary Road, West Roxbury, MA 02132"
1,"42.263 -71.155","-71.155","42.263",45,45,86,41,41,41,41,"Boston - Beethoven","5125 Washington Street, West Roxbury, MA 02132"
1,"42.265 -71.117","-71.117","42.265",57,61,62,1,5,1,5,"Boston - Elihu Greenwood Leadership Academy","612 Metropolitan Avenue, Hyde Park, MA 02136"
1,"42.267 -71.105","-71.105","42.267",47,44,47,3,0,3,0,"Boston - James J Chittick","154 Ruskindale Road, Mattapan, MA 02126"
1,"42.271 -71.092","-71.092","42.271",52,56,35,-21,-17,21,17,"Boston - Dr. Catherine Ellison-Rosa Parks Early Ed School","108 Babson Street, Mattapan, MA 02126"
1,"42.271 -71.163","-71.163","42.271",43,46,69,23,26,23,26,"Boston - Joyce Kilmer","35 Baker Street, West Roxbury, MA 02132"
1,"42.274 -71.106","-71.106","42.274",116,91,107,16,-9,16,9,"Boston - Mattahunt","100 Hebron Street, Mattapan, MA 02126"
1,"42.274 -71.127","-71.127","42.274",32,24,55,31,23,31,23,"Boston - George H Conley","450 Poplar Street, Roslindale, MA 02131"
1,"42.275 -71.091","-71.091","42.275",0,39,0,-39,0,39,0,"Boston - Mildred Avenue K-8","5 Mildred Avenue, Mattapan, MA 02126"
1,"42.276 -71.066","-71.066","42.276",23,20,52,32,29,32,29,"Conservatory Lab Charter - Conservatory Lab Charter School","2120 Dorchester Avenue, Dorchester, MA 02124"
1,"42.277 -71.077","-71.077","42.277",74,81,88,7,14,7,14,"Boston - Charles H Taylor","1060 Morton Street, Mattapan, MA 02126"
1,"42.277 -71.135","-71.135","42.277",42,44,44,0,2,0,2,"Boston - Phineas Bates","426 Beech Street, Roslindale, MA 02131"
1,"42.281 -71.093","-71.093","42.281",43,43,58,15,15,15,15,"Boston - Solomon Lewenberg Middle","20 Outlook Rd, Mattapan, MA 02126"
1,"42.281 -71.122","-71.122","42.281",0,63,66,3,66,3,66,"Edward Brooke Charter - Edward Brooke Charter School","190 Cummins Highway, Roslindale, MA 02131"
1,"42.281 -71.141","-71.141","42.281",23,22,23,1,0,1,0,"Boston - Mozart","236 Beech Street, Roslindale, MA 02131"
1,"42.282 -71.086","-71.086","42.282",42,0,0,0,-42,0,42,"Boston - Pauline Agassiz Shaw","429 Norfolk St, Dorchester, MA 02124"
1,"42.282 -71.158","-71.158","42.282",48,51,81,30,33,30,33,"Boston - Lyndon","20 Mt. Vernon Street, West Roxbury, MA 02132"
1,"42.285 -71.117","-71.117","42.285",27,31,27,-4,0,4,0,"Boston - John D Philbrick","40 Philbrick Street, Roslindale, MA 02131"
1,"42.286 -71.053","-71.053","42.286",21,29,53,24,32,24,32,"Boston - Thomas J Kenny","19 Oakton Avenue, Dorchester, MA 02122"
1,"42.286 -71.072","-71.072","42.286",61,96,76,-20,15,20,15,"Boston - Emily A Fifield","25 Dunbar Ave, Dorchester, MA 02124"
1,"42.286 -71.107","-71.107","42.286",52,43,40,-3,-12,3,12,"Boston - Dennis C Haley","570 American Legion Highway, Roslindale, MA 02131"
1,"42.286 -71.126","-71.126","42.286",87,81,104,23,17,23,17,"Boston - Charles Sumner","15 Basile Street, Roslindale, MA 02131"
1,"42.292 -71.080","-71.080","42.292",101,50,58,8,-43,8,43,"Boston - Joseph Lee","155 Talbot Avenue, Dorchester, MA 02124"
1,"42.293 -71.053","-71.053","42.293",22,41,42,1,20,1,20,"Neighborhood House Charter (District) - Neighborhood House Charter School","21 Queen Street, Dorchester, MA 02122"
1,"42.293 -71.062","-71.062","42.293",45,24,26,2,-19,2,19,"Boston - Dr. William Henderson Lower","1669 Dorchester Avenue, Dorchester, MA 02122"
1,"42.294 -71.049","-71.049","42.294",71,68,67,-1,-4,1,4,"Boston - Richard J Murphy","1 Worrell Street, Dorchester, MA 02122"
1,"42.294 -71.115","-71.115","42.294",0,24,24,0,24,0,24,"Boston - Boston Teachers Union School","25 Walk Hill Street, Jamaica Plain, MA 02130"
1,"42.295 -71.071","-71.071","42.295",23,0,0,0,-23,0,23,"Boston - Lucy Stone","22 Regina Rd, Dorchester, MA 02124"
1,"42.295 -71.091","-71.091","42.295",0,0,64,64,64,64,64,"Brooke Charter School Mattapan - Brooke Charter School Mattapan","150 American Legion Highway, Boston, MA 02124"
1,"42.296 -71.072","-71.072","42.296",0,0,22,22,22,22,22,"Codman Academy Charter Public (District) - Codman Academy Charter Public School","637 Washington Street, Dorchester, MA 02124"
1,"42.296 -71.074","-71.074","42.296",30,47,59,12,29,12,29,"Boston - O W Holmes","40 School Street, Dorchester, MA 02124"
1,"42.296 -71.080","-71.080","42.296",46,41,46,5,0,5,0,"Boston - Sarah Greenwood","189 Glenway Street, Dorchester, MA 02121"
1,"42.299 -71.070","-71.070","42.299",102,114,96,-18,-6,18,6,"UP Academy Charter School of Dorchester (District) - UP Academy Charter School of Dorchester","35 Westville Street, Boston, MA 02124"
1,"42.301 -71.085","-71.085","42.301",0,0,38,38,38,38,38,"Bridge Boston Charter School - Bridge Boston Charter School","2 McLellan Street, Dorchester, MA 02121"
1,"42.305 -71.131","-71.131","42.305",27,26,23,-3,-4,3,4,"Boston - Joseph P Manning","130 Louders Lane, Jamaica Plain, MA 02130"
1,"42.306 -71.073","-71.073","42.306",122,109,141,32,19,32,19,"Boston - UP Academy Holland","85 Olney Street, Dorchester, MA 02121"
1,"42.307 -71.062","-71.062","42.307",83,79,86,7,3,7,3,"Boston - Mather","1 Parish Street, Dorchester, MA 02122"
1,"42.307 -71.113","-71.113","42.307",19,25,20,-5,1,5,1,"Boston - Margarita Muniz Academy","20 Child Street, Boston, MA 02130"
1,"42.307 -71.114","-71.114","42.307",103,87,0,-87,-103,87,103,"Boston - Agassiz","20 Child St, Jamaica Plain, MA 02130"
1,"42.311 -71.071","-71.071","42.311",42,38,0,-38,-42,38,42,"Boston - ELC - East Zone","370 Columbia Rd, Dorchester, MA 02125"
1,"42.311 -71.073","-71.073","42.311",45,0,0,0,-45,0,45,"Boston - Quincy E Dickerman","206 Magnolia St, Dorchester, MA 02121"
1,"42.311 -71.076","-71.076","42.311",0,37,66,29,66,29,66,"Boston - Martin Luther King Jr Mid","77 Lawrence Ave., Dorchester, MA 02121"
1,"42.313 -71.098","-71.098","42.313",50,50,48,-2,-2,2,2,"Boston - Rafael Hernandez","61 School Street, Roxbury, MA 02119"
1,"42.314 -71.059","-71.059","42.314",43,39,44,5,1,5,1,"Boston - Edward Everett","71 Pleasant Street, Dorchester, MA 02125"
1,"42.315 -71.078","-71.078","42.315",62,68,70,2,8,2,8,"Boston - Haynes Early Education Center","263 Blue Hill Avenue, Roxbury , MA 02119"
1,"42.315 -71.087","-71.087","42.315",94,76,94,18,0,18,0,"Boston - William Monroe Trotter","135 Humboldt Avenue, Dorchester, MA 02121"
1,"42.316 -71.093","-71.093","42.316",54,54,62,8,8,8,8,"Boston - David A Ellis","302 Walnut Avenue, Roxbury, MA 02119"
1,"42.316 -71.101","-71.101","42.316",29,29,41,12,12,12,12,"Boston - Ellis Mendell","164 School Street, Roxbury, MA 02119"
1,"42.317 -71.042","-71.042","42.317",86,88,89,1,3,1,3,"Boston - Paul A Dever","325 Mt Vernon Street, Dorchester, MA 02125"
1,"42.317 -71.091","-71.091","42.317",32,0,51,51,19,51,19,"Boston - Higginson","160 Harrishof Street, Roxbury, MA 02119"
1,"42.318 -71.075","-71.075","42.318",43,42,61,19,18,19,18,"Boston - John Winthrop","35 Brookford Street, Dorchester, MA 02125"
1,"42.318 -71.113","-71.113","42.318",45,54,94,40,49,40,49,"Boston - Mary E Curley Middle","493 Centre St, Jamaica Plain, MA 02130"
1,"42.320 -71.059","-71.059","42.320",59,56,83,27,24,27,24,"Boston - William E Russell","750 Columbia Road, Dorchester, MA 02125"
1,"42.321 -71.085","-71.085","42.321",0,34,50,16,50,16,50,"Boston - Higginson/Lewis K-8","131 Walnut Avenue, Roxbury, MA 02119"
1,"42.321 -71.106","-71.106","42.321",77,54,67,13,-10,13,10,"Boston - John F Kennedy","7 Bolster Street, Jamaica Plain, MA 02130"
1,"42.323 -71.058","-71.058","42.323",23,22,31,9,8,9,8,"Boston - Roger Clap","35 Harvest Street, Dorchester, MA 02125"
1,"42.323 -71.073","-71.073","42.323",27,42,44,2,17,2,17,"Dudley Street Neighborhood Charter School - Dudley Street Neighborhood Charter School","6 Shirley Street, Boston, MA 02119"
1,"42.325 -71.091","-71.091","42.325",23,29,24,-5,1,5,1,"Boston - Nathan Hale","51 Cedar Street, Roxbury, MA 02119"
1,"42.326 -71.071","-71.071","42.326",33,32,40,8,7,8,7,"Boston - Samuel W Mason","150 Norfolk Avenue, Roxbury, MA 02119"
1,"42.326 -71.106","-71.106","42.326",112,100,107,7,-5,7,5,"Boston - James W Hennigan","200 Heath Street, Jamaica Plain, MA 02130"
1,"42.330 -71.077","-71.077","42.330",65,58,83,25,18,25,18,"Boston - Orchard Gardens ","906 Albany Street, Roxbury, MA 02119"
1,"42.331 -71.050","-71.050","42.331",41,41,42,1,1,1,1,"Boston - Michael J Perkins","50 Burke Street, South Boston, MA 02127"
1,"42.332 -71.030","-71.030","42.332",25,23,22,-1,-3,1,3,"Boston - Oliver Hazard Perry","745 E. 7th Street, South Boston, MA 02127"
1,"42.333 -71.098","-71.098","42.333",58,61,60,-1,2,1,2,"Boston - Maurice J Tobin","40 Smith St, Roxbury, MA 02120"
1,"42.334 -71.038","-71.038","42.334",67,62,73,11,6,11,6,"Boston - Joseph P Tynan","650 E.  Fourth Street, South Boston, MA 02127"
1,"42.334 -71.106","-71.106","42.334",46,41,0,-41,-46,41,46,"Boston - Farragut","10 Fenwood Road, Boston, MA 02115"
1,"42.338 -71.052","-71.052","42.338",93,97,125,28,32,28,32,"Boston - James Condon Elementary","200 D Street, South Boston, MA 02127"
1,"42.339 -71.077","-71.077","42.339",51,44,49,5,-2,5,2,"Boston - Joseph J Hurley","70 Worcester Street, Boston, MA 02118"
1,"42.340 -71.073","-71.073","42.340",102,86,99,13,-3,13,3,"Boston - Blackstone","380 Shawmut Avenue, Boston, MA 02118"
1,"42.340 -71.154","-71.154","42.340",33,0,0,0,-33,0,33,"Boston - Alexander Hamilton","198 Strathmore Rd, Brighton, MA 02135"
1,"42.341 -71.140","-71.140","42.341",19,41,37,-4,18,4,18,"Boston - Baldwin Early Learning Center","121 Corey Road, Brighton, MA 02135"
1,"42.344 -71.073","-71.073","42.344",2,1,5,4,3,4,3,"Boston - William McKinley","90 Warren Avenue, Boston, MA 02116"
1,"42.345 -71.160","-71.160","42.345",0,55,71,16,71,16,71,"Boston - Thomas A Edison Jr High","60 Glenmont Road, Brighton, MA 02135"
1,"42.347 -71.064","-71.064","42.347",123,109,127,18,4,18,4,"Boston - Josiah Quincy","885 Washington Street, Boston, MA 02111"
1,"42.347 -71.154","-71.154","42.347",46,52,47,-5,1,5,1,"Boston - Winship Elementary","54 Dighton Street, Brighton, MA 02135"
1,"42.351 -71.137","-71.137","42.351",93,96,88,-8,-5,8,5,"Boston - Horace Mann School for the Deaf","40 Armington  Street, Allston, MA 02134"
1,"42.351 -71.161","-71.161","42.351",11,15,12,-3,1,3,1,"Boston - Lyon K-8","50 Beechcroft Street, Brighton, MA 02135"
1,"42.352 -71.120","-71.120","42.352",0,0,50,50,50,50,50,"Media and Technology Charter - Media and Technology Charter School","1001 Commonwealth Avenue, Boston, MA 02215"
1,"42.352 -71.160","-71.160","42.352",37,0,0,0,-37,0,37,"Boston - Lyon Upper 9-12","95 Beechcroft Street, Brighton, MA 02135"
1,"42.360 -71.133","-71.133","42.360",52,54,36,-18,-16,18,16,"Boston - Thomas Gardner","30 Athol Street, Allston, MA 02134"
1,"42.365 -71.034","-71.034","42.365",48,44,50,6,2,6,2,"Boston - Samuel Adams","165 Webster Street, East Boston, MA 02128"
1,"42.366 -71.053","-71.053","42.366",27,22,57,35,30,35,30,"Boston - Eliot Elementary","16 Charter Street, Boston, MA 02113"
1,"42.375 -71.033","-71.033","42.375",49,51,57,6,8,6,8,"Boston - James Otis","218 Marion Street, East Boston, MA 02128"
1,"42.376 -71.057","-71.057","42.376",96,69,108,39,12,39,12,"Boston - Harvard-Kent","50 Bunker Hill Street, Charlestown, MA 02129"
1,"42.378 -71.030","-71.030","42.378",31,50,73,23,42,23,42,"Boston - Patrick J Kennedy","343 Saratoga Street, East Boston, MA 02128"
1,"42.378 -71.038","-71.038","42.378",39,47,45,-2,6,2,6,"Boston - Hugh Roe ODonnell","33 Trenton Street, East Boston, MA 02128"
1,"42.378 -71.040","-71.040","42.378",0,0,64,64,64,64,64,"Boston - Mario Umana Middle School Academy","312 Border St, East Boston, MA 02128"
1,"42.378 -71.064","-71.064","42.378",42,52,68,16,26,16,26,"Boston - Warren-Prescott","50 School Street, Charlestown, MA 02129"
1,"42.382 -71.016","-71.016","42.382",0,0,64,64,64,64,64,"Brooke Charter School East Boston - Brooke Charter School East Boston","94 Horace, East Boston, MA 02128"
1,"42.388 -71.004","-71.004","42.388",47,51,63,12,16,12,16,"Boston - Curtis Guild","195 Leyden Street, East Boston, MA 02128"
1,"42.390 -71.027","-71.027","42.390",62,73,70,-3,8,3,8,"Boston - Donald Mckay","122 Cottage Street, East Boston, MA 02128"
1,"42.391 -71.005","-71.005","42.391",29,46,51,5,22,5,22,"Boston - Manassah E Bradley","110 Beachview Road, East Boston, MA 02128"
1,"42.391 -71.027","-71.027","42.391",63,54,41,-13,-22,13,22,"Boston - East Boston Early Childhood Center","135 Grove Street, East Boston, MA 02128"
1,"42.392 -71.031","-71.031","42.392",19,19,16,-3,-3,3,3,"Boston - Dante Alighieri","37 Grove Street, East Boston, MA 02128"
2,"42.242 -71.123","-71.123","42.242",41,41,45,4,4,4,4,"Boston - Franklin D Roosevelt","95 Needham Road, Hyde Park, MA 02136"
2,"42.250 -71.126","-71.126","42.250",143,179,128,-51,-15,51,15,"Boston Renaissance Charter Public (District) - Boston Renaissance Charter  Public School","1415 Hyde Park Ave, Hyde Park, MA 02136"
2,"42.251 -71.133","-71.133","42.251",35,42,43,1,8,1,8,"Boston - William Ellery Channing","35 Sunnyside Street, Hyde Park, MA 02136"
2,"42.256 -71.126","-71.126","42.256",40,38,44,6,4,6,4,"Boston - Henry Grew","40 Gordon Avenue, Hyde Park, MA 02136"
2,"42.261 -71.148","-71.148","42.261",92,58,0,-58,-92,58,92,"Boston - William H Ohrenberger","175 West  Boundary Road, West Roxbury, MA 02132"
2,"42.263 -71.155","-71.155","42.263",44,48,87,39,43,39,43,"Boston - Beethoven","5125 Washington Street, West Roxbury, MA 02132"
2,"42.265 -71.117","-71.117","42.265",68,62,58,-4,-10,4,10,"Boston - Elihu Greenwood Leadership Academy","612 Metropolitan Avenue, Hyde Park, MA 02136"
2,"42.267 -71.105","-71.105","42.267",40,45,48,3,8,3,8,"Boston - James J Chittick","154 Ruskindale Road, Mattapan, MA 02126"
2,"42.271 -71.092","-71.092","42.271",0,50,33,-17,33,17,33,"Boston - Dr. Catherine Ellison-Rosa Parks Early Ed School","108 Babson Street, Mattapan, MA 02126"
2,"42.271 -71.163","-71.163","42.271",44,45,48,3,4,3,4,"Boston - Joyce Kilmer","35 Baker Street, West Roxbury, MA 02132"
2,"42.274 -71.106","-71.106","42.274",90,92,109,17,19,17,19,"Boston - Mattahunt","100 Hebron Street, Mattapan, MA 02126"
2,"42.274 -71.127","-71.127","42.274",34,27,23,-4,-11,4,11,"Boston - George H Conley","450 Poplar Street, Roslindale, MA 02131"
2,"42.275 -71.091","-71.091","42.275",0,39,0,-39,0,39,0,"Boston - Mildred Avenue K-8","5 Mildred Avenue, Mattapan, MA 02126"
2,"42.276 -71.066","-71.066","42.276",24,21,47,26,23,26,23,"Conservatory Lab Charter - Conservatory Lab Charter School","2120 Dorchester Avenue, Dorchester, MA 02124"
2,"42.277 -71.077","-71.077","42.277",89,72,86,14,-3,14,3,"Boston - Charles H Taylor","1060 Morton Street, Mattapan, MA 02126"
2,"42.277 -71.135","-71.135","42.277",47,45,44,-1,-3,1,3,"Boston - Phineas Bates","426 Beech Street, Roslindale, MA 02131"
2,"42.281 -71.093","-71.093","42.281",41,40,58,18,17,18,17,"Boston - Solomon Lewenberg Middle","20 Outlook Rd, Mattapan, MA 02126"
2,"42.281 -71.122","-71.122","42.281",0,60,63,3,63,3,63,"Edward Brooke Charter - Edward Brooke Charter School","190 Cummins Highway, Roslindale, MA 02131"
2,"42.281 -71.141","-71.141","42.281",23,22,22,0,-1,0,1,"Boston - Mozart","236 Beech Street, Roslindale, MA 02131"
2,"42.282 -71.086","-71.086","42.282",37,0,0,0,-37,0,37,"Boston - Pauline Agassiz Shaw","429 Norfolk St, Dorchester, MA 02124"
2,"42.282 -71.158","-71.158","42.282",54,59,62,3,8,3,8,"Boston - Lyndon","20 Mt. Vernon Street, West Roxbury, MA 02132"
2,"42.285 -71.117","-71.117","42.285",24,26,23,-3,-1,3,1,"Boston - John D Philbrick","40 Philbrick Street, Roslindale, MA 02131"
2,"42.286 -71.053","-71.053","42.286",42,43,37,-6,-5,6,5,"Boston - Thomas J Kenny","19 Oakton Avenue, Dorchester, MA 02122"
2,"42.286 -71.072","-71.072","42.286",62,81,0,-81,-62,81,62,"Boston - Emily A Fifield","25 Dunbar Ave, Dorchester, MA 02124"
2,"42.286 -71.107","-71.107","42.286",58,41,61,20,3,20,3,"Boston - Dennis C Haley","570 American Legion Highway, Roslindale, MA 02131"
2,"42.286 -71.126","-71.126","42.286",77,92,102,10,25,10,25,"Boston - Charles Sumner","15 Basile Street, Roslindale, MA 02131"
2,"42.292 -71.080","-71.080","42.292",84,55,56,1,-28,1,28,"Boston - Joseph Lee","155 Talbot Avenue, Dorchester, MA 02124"
2,"42.293 -71.053","-71.053","42.293",22,41,40,-1,18,1,18,"Neighborhood House Charter (District) - Neighborhood House Charter School","21 Queen Street, Dorchester, MA 02122"
2,"42.293 -71.062","-71.062","42.293",23,22,49,27,26,27,26,"Boston - Dr. William Henderson Lower","1669 Dorchester Avenue, Dorchester, MA 02122"
2,"42.294 -71.049","-71.049","42.294",96,72,76,4,-20,4,20,"Boston - Richard J Murphy","1 Worrell Street, Dorchester, MA 02122"
2,"42.294 -71.115","-71.115","42.294",0,22,26,4,26,4,26,"Boston - Boston Teachers Union School","25 Walk Hill Street, Jamaica Plain, MA 02130"
2,"42.295 -71.071","-71.071","42.295",24,0,0,0,-24,0,24,"Boston - Lucy Stone","22 Regina Rd, Dorchester, MA 02124"
2,"42.295 -71.091","-71.091","42.295",0,0,63,63,63,63,63,"Brooke Charter School Mattapan - Brooke Charter School Mattapan","150 American Legion Highway, Boston, MA 02124"
2,"42.296 -71.072","-71.072","42.296",0,0,23,23,23,23,23,"Codman Academy Charter Public (District) - Codman Academy Charter Public School","637 Washington Street, Dorchester, MA 02124"
2,"42.296 -71.074","-71.074","42.296",29,47,56,9,27,9,27,"Boston - O W Holmes","40 School Street, Dorchester, MA 02124"
2,"42.296 -71.080","-71.080","42.296",49,48,52,4,3,4,3,"Boston - Sarah Greenwood","189 Glenway Street, Dorchester, MA 02121"
2,"42.299 -71.070","-71.070","42.299",117,103,104,1,-13,1,13,"UP Academy Charter School of Dorchester (District) - UP Academy Charter School of Dorchester","35 Westville Street, Boston, MA 02124"
2,"42.301 -71.085","-71.085","42.301",0,0,37,37,37,37,37,"Bridge Boston Charter School - Bridge Boston Charter School","2 McLellan Street, Dorchester, MA 02121"
2,"42.305 -71.131","-71.131","42.305",28,27,24,-3,-4,3,4,"Boston - Joseph P Manning","130 Louders Lane, Jamaica Plain, MA 02130"
2,"42.306 -71.073","-71.073","42.306",124,123,122,-1,-2,1,2,"Boston - UP Academy Holland","85 Olney Street, Dorchester, MA 02121"
2,"42.307 -71.062","-71.062","42.307",72,80,94,14,22,14,22,"Boston - Mather","1 Parish Street, Dorchester, MA 02122"
2,"42.307 -71.113","-71.113","42.307",20,23,32,9,12,9,12,"Boston - Margarita Muniz Academy","20 Child Street, Boston, MA 02130"
2,"42.307 -71.114","-71.114","42.307",96,84,0,-84,-96,84,96,"Boston - Agassiz","20 Child St, Jamaica Plain, MA 02130"
2,"42.311 -71.073","-71.073","42.311",44,0,0,0,-44,0,44,"Boston - Quincy E Dickerman","206 Magnolia St, Dorchester, MA 02121"
2,"42.311 -71.076","-71.076","42.311",0,42,64,22,64,22,64,"Boston - Martin Luther King Jr Mid","77 Lawrence Ave., Dorchester, MA 02121"
2,"42.313 -71.098","-71.098","42.313",43,49,45,-4,2,4,2,"Boston - Rafael Hernandez","61 School Street, Roxbury, MA 02119"
2,"42.314 -71.059","-71.059","42.314",40,42,47,5,7,5,7,"Boston - Edward Everett","71 Pleasant Street, Dorchester, MA 02125"
2,"42.315 -71.087","-71.087","42.315",86,65,88,23,2,23,2,"Boston - William Monroe Trotter","135 Humboldt Avenue, Dorchester, MA 02121"
2,"42.316 -71.093","-71.093","42.316",55,56,75,19,20,19,20,"Boston - David A Ellis","302 Walnut Avenue, Roxbury, MA 02119"
2,"42.316 -71.101","-71.101","42.316",23,20,43,23,20,23,20,"Boston - Ellis Mendell","164 School Street, Roxbury, MA 02119"
2,"42.317 -71.042","-71.042","42.317",84,84,90,6,6,6,6,"Boston - Paul A Dever","325 Mt Vernon Street, Dorchester, MA 02125"
2,"42.317 -71.091","-71.091","42.317",23,0,51,51,28,51,28,"Boston - Higginson","160 Harrishof Street, Roxbury, MA 02119"
2,"42.318 -71.075","-71.075","42.318",44,44,58,14,14,14,14,"Boston - John Winthrop","35 Brookford Street, Dorchester, MA 02125"
2,"42.318 -71.113","-71.113","42.318",46,52,87,35,41,35,41,"Boston - Mary E Curley Middle","493 Centre St, Jamaica Plain, MA 02130"
2,"42.320 -71.059","-71.059","42.320",53,56,59,3,6,3,6,"Boston - William E Russell","750 Columbia Road, Dorchester, MA 02125"
2,"42.321 -71.085","-71.085","42.321",0,26,48,22,48,22,48,"Boston - Higginson/Lewis K-8","131 Walnut Avenue, Roxbury, MA 02119"
2,"42.321 -71.106","-71.106","42.321",88,64,73,9,-15,9,15,"Boston - John F Kennedy","7 Bolster Street, Jamaica Plain, MA 02130"
2,"42.323 -71.058","-71.058","42.323",22,23,27,4,5,4,5,"Boston - Roger Clap","35 Harvest Street, Dorchester, MA 02125"
2,"42.323 -71.073","-71.073","42.323",30,46,43,-3,13,3,13,"Dudley Street Neighborhood Charter School - Dudley Street Neighborhood Charter School","6 Shirley Street, Boston, MA 02119"
2,"42.325 -71.091","-71.091","42.325",39,20,22,2,-17,2,17,"Boston - Nathan Hale","51 Cedar Street, Roxbury, MA 02119"
2,"42.326 -71.071","-71.071","42.326",33,28,36,8,3,8,3,"Boston - Samuel W Mason","150 Norfolk Avenue, Roxbury, MA 02119"
2,"42.326 -71.106","-71.106","42.326",80,74,89,15,9,15,9,"Boston - James W Hennigan","200 Heath Street, Jamaica Plain, MA 02130"
2,"42.330 -71.077","-71.077","42.330",60,64,100,36,40,36,40,"Boston - Orchard Gardens ","906 Albany Street, Roxbury, MA 02119"
2,"42.331 -71.050","-71.050","42.331",35,31,45,14,10,14,10,"Boston - Michael J Perkins","50 Burke Street, South Boston, MA 02127"
2,"42.332 -71.030","-71.030","42.332",31,27,27,0,-4,0,4,"Boston - Oliver Hazard Perry","745 E. 7th Street, South Boston, MA 02127"
2,"42.333 -71.098","-71.098","42.333",54,58,60,2,6,2,6,"Boston - Maurice J Tobin","40 Smith St, Roxbury, MA 02120"
2,"42.334 -71.038","-71.038","42.334",51,48,78,30,27,30,27,"Boston - Joseph P Tynan","650 E.  Fourth Street, South Boston, MA 02127"
2,"42.334 -71.106","-71.106","42.334",44,38,0,-38,-44,38,44,"Boston - Farragut","10 Fenwood Road, Boston, MA 02115"
2,"42.338 -71.052","-71.052","42.338",88,92,132,40,44,40,44,"Boston - James Condon Elementary","200 D Street, South Boston, MA 02127"
2,"42.339 -71.077","-71.077","42.339",51,43,50,7,-1,7,1,"Boston - Joseph J Hurley","70 Worcester Street, Boston, MA 02118"
2,"42.340 -71.073","-71.073","42.340",87,89,107,18,20,18,20,"Boston - Blackstone","380 Shawmut Avenue, Boston, MA 02118"
2,"42.340 -71.154","-71.154","42.340",26,0,0,0,-26,0,26,"Boston - Alexander Hamilton","198 Strathmore Rd, Brighton, MA 02135"
2,"42.344 -71.073","-71.073","42.344",5,9,12,3,7,3,7,"Boston - William McKinley","90 Warren Avenue, Boston, MA 02116"
2,"42.345 -71.160","-71.160","42.345",0,56,93,37,93,37,93,"Boston - Thomas A Edison Jr High","60 Glenmont Road, Brighton, MA 02135"
2,"42.347 -71.064","-71.064","42.347",108,123,122,-1,14,1,14,"Boston - Josiah Quincy","885 Washington Street, Boston, MA 02111"
2,"42.347 -71.154","-71.154","42.347",35,42,64,22,29,22,29,"Boston - Winship Elementary","54 Dighton Street, Brighton, MA 02135"
2,"42.351 -71.137","-71.137","42.351",110,69,92,23,-18,23,18,"Boston - Horace Mann School for the Deaf","40 Armington  Street, Allston, MA 02134"
2,"42.351 -71.161","-71.161","42.351",13,13,15,2,2,2,2,"Boston - Lyon K-8","50 Beechcroft Street, Brighton, MA 02135"
2,"42.352 -71.120","-71.120","42.352",0,0,50,50,50,50,50,"Media and Technology Charter - Media and Technology Charter School","1001 Commonwealth Avenue, Boston, MA 02215"
2,"42.352 -71.160","-71.160","42.352",40,0,0,0,-40,0,40,"Boston - Lyon Upper 9-12","95 Beechcroft Street, Brighton, MA 02135"
2,"42.360 -71.133","-71.133","42.360",49,53,38,-15,-11,15,11,"Boston - Thomas Gardner","30 Athol Street, Allston, MA 02134"
2,"42.365 -71.034","-71.034","42.365",43,50,51,1,8,1,8,"Boston - Samuel Adams","165 Webster Street, East Boston, MA 02128"
2,"42.366 -71.053","-71.053","42.366",27,25,71,46,44,46,44,"Boston - Eliot Elementary","16 Charter Street, Boston, MA 02113"
2,"42.375 -71.033","-71.033","42.375",50,46,63,17,13,17,13,"Boston - James Otis","218 Marion Street, East Boston, MA 02128"
2,"42.376 -71.057","-71.057","42.376",71,73,108,35,37,35,37,"Boston - Harvard-Kent","50 Bunker Hill Street, Charlestown, MA 02129"
2,"42.378 -71.030","-71.030","42.378",39,37,64,27,25,27,25,"Boston - Patrick J Kennedy","343 Saratoga Street, East Boston, MA 02128"
2,"42.378 -71.038","-71.038","42.378",40,42,44,2,4,2,4,"Boston - Hugh Roe ODonnell","33 Trenton Street, East Boston, MA 02128"
2,"42.378 -71.040","-71.040","42.378",0,0,77,77,77,77,77,"Boston - Mario Umana Middle School Academy","312 Border St, East Boston, MA 02128"
2,"42.378 -71.064","-71.064","42.378",44,47,71,24,27,24,27,"Boston - Warren-Prescott","50 School Street, Charlestown, MA 02129"
2,"42.382 -71.016","-71.016","42.382",0,0,68,68,68,68,68,"Brooke Charter School East Boston - Brooke Charter School East Boston","94 Horace, East Boston, MA 02128"
2,"42.388 -71.004","-71.004","42.388",42,55,81,26,39,26,39,"Boston - Curtis Guild","195 Leyden Street, East Boston, MA 02128"
2,"42.390 -71.027","-71.027","42.390",84,92,90,-2,6,2,6,"Boston - Donald Mckay","122 Cottage Street, East Boston, MA 02128"
2,"42.391 -71.005","-71.005","42.391",36,46,43,-3,7,3,7,"Boston - Manassah E Bradley","110 Beachview Road, East Boston, MA 02128"
2,"42.392 -71.031","-71.031","42.392",22,25,12,-13,-10,13,10,"Boston - Dante Alighieri","37 Grove Street, East Boston, MA 02128"
3,"42.242 -71.123","-71.123","42.242",47,48,40,-8,-7,8,7,"Boston - Franklin D Roosevelt","95 Needham Road, Hyde Park, MA 02136"
3,"42.250 -71.126","-71.126","42.250",144,167,127,-40,-17,40,17,"Boston Renaissance Charter Public (District) - Boston Renaissance Charter  Public School","1415 Hyde Park Ave, Hyde Park, MA 02136"
3,"42.251 -71.133","-71.133","42.251",45,42,52,10,7,10,7,"Boston - William Ellery Channing","35 Sunnyside Street, Hyde Park, MA 02136"
3,"42.256 -71.126","-71.126","42.256",44,50,40,-10,-4,10,4,"Boston - Henry Grew","40 Gordon Avenue, Hyde Park, MA 02136"
3,"42.261 -71.148","-71.148","42.261",83,59,89,30,6,30,6,"Boston - William H Ohrenberger","175 West  Boundary Road, West Roxbury, MA 02132"
3,"42.263 -71.155","-71.155","42.263",54,52,8,-44,-46,44,46,"Boston - Beethoven","5125 Washington Street, West Roxbury, MA 02132"
3,"42.265 -71.117","-71.117","42.265",82,78,68,-10,-14,10,14,"Boston - Elihu Greenwood Leadership Academy","612 Metropolitan Avenue, Hyde Park, MA 02136"
3,"42.267 -71.105","-71.105","42.267",55,50,44,-6,-11,6,11,"Boston - James J Chittick","154 Ruskindale Road, Mattapan, MA 02126"
3,"42.271 -71.092","-71.092","42.271",0,0,28,28,28,28,28,"Boston - Dr. Catherine Ellison-Rosa Parks Early Ed School","108 Babson Street, Mattapan, MA 02126"
3,"42.271 -71.163","-71.163","42.271",46,51,50,-1,4,1,4,"Boston - Joyce Kilmer","35 Baker Street, West Roxbury, MA 02132"
3,"42.274 -71.106","-71.106","42.274",84,96,82,-14,-2,14,2,"Boston - Mattahunt","100 Hebron Street, Mattapan, MA 02126"
3,"42.274 -71.127","-71.127","42.274",35,28,30,2,-5,2,5,"Boston - George H Conley","450 Poplar Street, Roslindale, MA 02131"
3,"42.275 -71.091","-71.091","42.275",0,50,0,-50,0,50,0,"Boston - Mildred Avenue K-8","5 Mildred Avenue, Mattapan, MA 02126"
3,"42.276 -71.066","-71.066","42.276",24,23,45,22,21,22,21,"Conservatory Lab Charter - Conservatory Lab Charter School","2120 Dorchester Avenue, Dorchester, MA 02124"
3,"42.277 -71.077","-71.077","42.277",92,79,94,15,2,15,2,"Boston - Charles H Taylor","1060 Morton Street, Mattapan, MA 02126"
3,"42.277 -71.135","-71.135","42.277",45,47,47,0,2,0,2,"Boston - Phineas Bates","426 Beech Street, Roslindale, MA 02131"
3,"42.281 -71.093","-71.093","42.281",42,41,58,17,16,17,16,"Boston - Solomon Lewenberg Middle","20 Outlook Rd, Mattapan, MA 02126"
3,"42.281 -71.122","-71.122","42.281",0,60,58,-2,58,2,58,"Edward Brooke Charter - Edward Brooke Charter School","190 Cummins Highway, Roslindale, MA 02131"
3,"42.281 -71.141","-71.141","42.281",24,19,22,3,-2,3,2,"Boston - Mozart","236 Beech Street, Roslindale, MA 02131"
3,"42.282 -71.086","-71.086","42.282",51,0,0,0,-51,0,51,"Boston - Pauline Agassiz Shaw","429 Norfolk St, Dorchester, MA 02124"
3,"42.282 -71.158","-71.158","42.282",52,60,61,1,9,1,9,"Boston - Lyndon","20 Mt. Vernon Street, West Roxbury, MA 02132"
3,"42.285 -71.117","-71.117","42.285",18,26,25,-1,7,1,7,"Boston - John D Philbrick","40 Philbrick Street, Roslindale, MA 02131"
3,"42.286 -71.053","-71.053","42.286",37,39,53,14,16,14,16,"Boston - Thomas J Kenny","19 Oakton Avenue, Dorchester, MA 02122"
3,"42.286 -71.072","-71.072","42.286",57,97,0,-97,-57,97,57,"Boston - Emily A Fifield","25 Dunbar Ave, Dorchester, MA 02124"
3,"42.286 -71.107","-71.107","42.286",53,43,46,3,-7,3,7,"Boston - Dennis C Haley","570 American Legion Highway, Roslindale, MA 02131"
3,"42.286 -71.126","-71.126","42.286",76,74,84,10,8,10,8,"Boston - Charles Sumner","15 Basile Street, Roslindale, MA 02131"
3,"42.292 -71.080","-71.080","42.292",89,52,61,9,-28,9,28,"Boston - Joseph Lee","155 Talbot Avenue, Dorchester, MA 02124"
3,"42.293 -71.053","-71.053","42.293",22,40,42,2,20,2,20,"Neighborhood House Charter (District) - Neighborhood House Charter School","21 Queen Street, Dorchester, MA 02122"
3,"42.293 -71.062","-71.062","42.293",23,45,49,4,26,4,26,"Boston - Dr. William Henderson Lower","1669 Dorchester Avenue, Dorchester, MA 02122"
3,"42.294 -71.049","-71.049","42.294",114,84,83,-1,-31,1,31,"Boston - Richard J Murphy","1 Worrell Street, Dorchester, MA 02122"
3,"42.294 -71.115","-71.115","42.294",0,0,31,31,31,31,31,"Boston - Boston Teachers Union School","25 Walk Hill Street, Jamaica Plain, MA 02130"
3,"42.295 -71.071","-71.071","42.295",24,0,0,0,-24,0,24,"Boston - Lucy Stone","22 Regina Rd, Dorchester, MA 02124"
3,"42.295 -71.091","-71.091","42.295",0,0,60,60,60,60,60,"Brooke Charter School Mattapan - Brooke Charter School Mattapan","150 American Legion Highway, Boston, MA 02124"
3,"42.296 -71.074","-71.074","42.296",31,55,53,-2,22,2,22,"Boston - O W Holmes","40 School Street, Dorchester, MA 02124"
3,"42.296 -71.080","-71.080","42.296",52,48,51,3,-1,3,1,"Boston - Sarah Greenwood","189 Glenway Street, Dorchester, MA 02121"
3,"42.299 -71.070","-71.070","42.299",92,94,102,8,10,8,10,"UP Academy Charter School of Dorchester (District) - UP Academy Charter School of Dorchester","35 Westville Street, Boston, MA 02124"
3,"42.301 -71.085","-71.085","42.301",0,0,35,35,35,35,35,"Bridge Boston Charter School - Bridge Boston Charter School","2 McLellan Street, Dorchester, MA 02121"
3,"42.305 -71.131","-71.131","42.305",30,25,25,0,-5,0,5,"Boston - Joseph P Manning","130 Louders Lane, Jamaica Plain, MA 02130"
3,"42.306 -71.073","-71.073","42.306",116,109,114,5,-2,5,2,"Boston - UP Academy Holland","85 Olney Street, Dorchester, MA 02121"
3,"42.307 -71.062","-71.062","42.307",85,95,98,3,13,3,13,"Boston - Mather","1 Parish Street, Dorchester, MA 02122"
3,"42.307 -71.113","-71.113","42.307",20,21,26,5,6,5,6,"Boston - Margarita Muniz Academy","20 Child Street, Boston, MA 02130"
3,"42.307 -71.114","-71.114","42.307",115,71,0,-71,-115,71,115,"Boston - Agassiz","20 Child St, Jamaica Plain, MA 02130"
3,"42.311 -71.073","-71.073","42.311",33,0,0,0,-33,0,33,"Boston - Quincy E Dickerman","206 Magnolia St, Dorchester, MA 02121"
3,"42.311 -71.076","-71.076","42.311",0,22,70,48,70,48,70,"Boston - Martin Luther King Jr Mid","77 Lawrence Ave., Dorchester, MA 02121"
3,"42.313 -71.098","-71.098","42.313",49,46,49,3,0,3,0,"Boston - Rafael Hernandez","61 School Street, Roxbury, MA 02119"
3,"42.314 -71.059","-71.059","42.314",45,45,47,2,2,2,2,"Boston - Edward Everett","71 Pleasant Street, Dorchester, MA 02125"
3,"42.315 -71.087","-71.087","42.315",76,54,53,-1,-23,1,23,"Boston - William Monroe Trotter","135 Humboldt Avenue, Dorchester, MA 02121"
3,"42.316 -71.093","-71.093","42.316",70,54,68,14,-2,14,2,"Boston - David A Ellis","302 Walnut Avenue, Roxbury, MA 02119"
3,"42.316 -71.101","-71.101","42.316",37,31,34,3,-3,3,3,"Boston - Ellis Mendell","164 School Street, Roxbury, MA 02119"
3,"42.317 -71.042","-71.042","42.317",101,87,86,-1,-15,1,15,"Boston - Paul A Dever","325 Mt Vernon Street, Dorchester, MA 02125"
3,"42.317 -71.091","-71.091","42.317",22,0,0,0,-22,0,22,"Boston - Higginson","160 Harrishof Street, Roxbury, MA 02119"
3,"42.318 -71.075","-71.075","42.318",53,39,54,15,1,15,1,"Boston - John Winthrop","35 Brookford Street, Dorchester, MA 02125"
3,"42.318 -71.113","-71.113","42.318",42,50,73,23,31,23,31,"Boston - Mary E Curley Middle","493 Centre St, Jamaica Plain, MA 02130"
3,"42.320 -71.059","-71.059","42.320",56,62,45,-17,-11,17,11,"Boston - William E Russell","750 Columbia Road, Dorchester, MA 02125"
3,"42.321 -71.085","-71.085","42.321",0,26,69,43,69,43,69,"Boston - Higginson/Lewis K-8","131 Walnut Avenue, Roxbury, MA 02119"
3,"42.321 -71.106","-71.106","42.321",64,62,63,1,-1,1,1,"Boston - John F Kennedy","7 Bolster Street, Jamaica Plain, MA 02130"
3,"42.323 -71.058","-71.058","42.323",26,28,22,-6,-4,6,4,"Boston - Roger Clap","35 Harvest Street, Dorchester, MA 02125"
3,"42.323 -71.073","-71.073","42.323",41,32,44,12,3,12,3,"Dudley Street Neighborhood Charter School - Dudley Street Neighborhood Charter School","6 Shirley Street, Boston, MA 02119"
3,"42.325 -71.091","-71.091","42.325",33,23,48,25,15,25,15,"Boston - Nathan Hale","51 Cedar Street, Roxbury, MA 02119"
3,"42.326 -71.071","-71.071","42.326",31,32,40,8,9,8,9,"Boston - Samuel W Mason","150 Norfolk Avenue, Roxbury, MA 02119"
3,"42.326 -71.106","-71.106","42.326",87,79,88,9,1,9,1,"Boston - James W Hennigan","200 Heath Street, Jamaica Plain, MA 02130"
3,"42.330 -71.077","-71.077","42.330",70,69,90,21,20,21,20,"Boston - Orchard Gardens ","906 Albany Street, Roxbury, MA 02119"
3,"42.331 -71.050","-71.050","42.331",41,40,62,22,21,22,21,"Boston - Michael J Perkins","50 Burke Street, South Boston, MA 02127"
3,"42.332 -71.030","-71.030","42.332",28,29,28,-1,0,1,0,"Boston - Oliver Hazard Perry","745 E. 7th Street, South Boston, MA 02127"
3,"42.333 -71.098","-71.098","42.333",54,58,60,2,6,2,6,"Boston - Maurice J Tobin","40 Smith St, Roxbury, MA 02120"
3,"42.334 -71.038","-71.038","42.334",53,51,67,16,14,16,14,"Boston - Joseph P Tynan","650 E.  Fourth Street, South Boston, MA 02127"
3,"42.334 -71.106","-71.106","42.334",42,34,0,-34,-42,34,42,"Boston - Farragut","10 Fenwood Road, Boston, MA 02115"
3,"42.338 -71.052","-71.052","42.338",117,114,118,4,1,4,1,"Boston - James Condon Elementary","200 D Street, South Boston, MA 02127"
3,"42.339 -71.077","-71.077","42.339",45,55,35,-20,-10,20,10,"Boston - Joseph J Hurley","70 Worcester Street, Boston, MA 02118"
3,"42.340 -71.073","-71.073","42.340",90,88,98,10,8,10,8,"Boston - Blackstone","380 Shawmut Avenue, Boston, MA 02118"
3,"42.340 -71.154","-71.154","42.340",29,0,0,0,-29,0,29,"Boston - Alexander Hamilton","198 Strathmore Rd, Brighton, MA 02135"
3,"42.344 -71.073","-71.073","42.344",19,10,12,2,-7,2,7,"Boston - William McKinley","90 Warren Avenue, Boston, MA 02116"
3,"42.345 -71.160","-71.160","42.345",0,55,75,20,75,20,75,"Boston - Thomas A Edison Jr High","60 Glenmont Road, Brighton, MA 02135"
3,"42.347 -71.064","-71.064","42.347",116,110,116,6,0,6,0,"Boston - Josiah Quincy","885 Washington Street, Boston, MA 02111"
3,"42.347 -71.154","-71.154","42.347",22,42,43,1,21,1,21,"Boston - Winship Elementary","54 Dighton Street, Brighton, MA 02135"
3,"42.351 -71.137","-71.137","42.351",113,79,86,7,-27,7,27,"Boston - Horace Mann School for the Deaf","40 Armington  Street, Allston, MA 02134"
3,"42.351 -71.161","-71.161","42.351",13,14,15,1,2,1,2,"Boston - Lyon K-8","50 Beechcroft Street, Brighton, MA 02135"
3,"42.352 -71.120","-71.120","42.352",0,0,48,48,48,48,48,"Media and Technology Charter - Media and Technology Charter School","1001 Commonwealth Avenue, Boston, MA 02215"
3,"42.352 -71.160","-71.160","42.352",32,0,0,0,-32,0,32,"Boston - Lyon Upper 9-12","95 Beechcroft Street, Brighton, MA 02135"
3,"42.360 -71.133","-71.133","42.360",61,62,60,-2,-1,2,1,"Boston - Thomas Gardner","30 Athol Street, Allston, MA 02134"
3,"42.365 -71.034","-71.034","42.365",21,33,40,7,19,7,19,"Boston - Samuel Adams","165 Webster Street, East Boston, MA 02128"
3,"42.366 -71.053","-71.053","42.366",26,24,39,15,13,15,13,"Boston - Eliot Elementary","16 Charter Street, Boston, MA 02113"
3,"42.375 -71.033","-71.033","42.375",47,47,59,12,12,12,12,"Boston - James Otis","218 Marion Street, East Boston, MA 02128"
3,"42.376 -71.057","-71.057","42.376",74,78,90,12,16,12,16,"Boston - Harvard-Kent","50 Bunker Hill Street, Charlestown, MA 02129"
3,"42.378 -71.030","-71.030","42.378",33,32,42,10,9,10,9,"Boston - Patrick J Kennedy","343 Saratoga Street, East Boston, MA 02128"
3,"42.378 -71.038","-71.038","42.378",35,38,44,6,9,6,9,"Boston - Hugh Roe ODonnell","33 Trenton Street, East Boston, MA 02128"
3,"42.378 -71.040","-71.040","42.378",0,0,69,69,69,69,69,"Boston - Mario Umana Middle School Academy","312 Border St, East Boston, MA 02128"
3,"42.378 -71.064","-71.064","42.378",47,52,71,19,24,19,24,"Boston - Warren-Prescott","50 School Street, Charlestown, MA 02129"
3,"42.382 -71.016","-71.016","42.382",0,0,59,59,59,59,59,"Brooke Charter School East Boston - Brooke Charter School East Boston","94 Horace, East Boston, MA 02128"
3,"42.388 -71.004","-71.004","42.388",42,49,48,-1,6,1,6,"Boston - Curtis Guild","195 Leyden Street, East Boston, MA 02128"
3,"42.390 -71.027","-71.027","42.390",76,97,85,-12,9,12,9,"Boston - Donald Mckay","122 Cottage Street, East Boston, MA 02128"
3,"42.391 -71.005","-71.005","42.391",45,45,43,-2,-2,2,2,"Boston - Manassah E Bradley","110 Beachview Road, East Boston, MA 02128"
3,"42.392 -71.031","-71.031","42.392",23,22,9,-13,-14,13,14,"Boston - Dante Alighieri","37 Grove Street, East Boston, MA 02128"
4,"42.242 -71.123","-71.123","42.242",49,49,49,0,0,0,0,"Boston - Franklin D Roosevelt","95 Needham Road, Hyde Park, MA 02136"
4,"42.250 -71.126","-71.126","42.250",193,156,113,-43,-80,43,80,"Boston Renaissance Charter Public (District) - Boston Renaissance Charter  Public School","1415 Hyde Park Ave, Hyde Park, MA 02136"
4,"42.251 -71.133","-71.133","42.251",63,64,51,-13,-12,13,12,"Boston - William Ellery Channing","35 Sunnyside Street, Hyde Park, MA 02136"
4,"42.256 -71.126","-71.126","42.256",41,45,34,-11,-7,11,7,"Boston - Henry Grew","40 Gordon Avenue, Hyde Park, MA 02136"
4,"42.261 -71.148","-71.148","42.261",83,81,115,34,32,34,32,"Boston - William H Ohrenberger","175 West  Boundary Road, West Roxbury, MA 02132"
4,"42.263 -71.155","-71.155","42.263",57,50,0,-50,-57,50,57,"Boston - Beethoven","5125 Washington Street, West Roxbury, MA 02132"
4,"42.265 -71.117","-71.117","42.265",73,50,53,3,-20,3,20,"Boston - Elihu Greenwood Leadership Academy","612 Metropolitan Avenue, Hyde Park, MA 02136"
4,"42.267 -71.105","-71.105","42.267",44,43,39,-4,-5,4,5,"Boston - James J Chittick","154 Ruskindale Road, Mattapan, MA 02126"
4,"42.271 -71.163","-71.163","42.271",46,49,55,6,9,6,9,"Boston - Joyce Kilmer","35 Baker Street, West Roxbury, MA 02132"
4,"42.274 -71.106","-71.106","42.274",97,83,82,-1,-15,1,15,"Boston - Mattahunt","100 Hebron Street, Mattapan, MA 02126"
4,"42.274 -71.127","-71.127","42.274",27,32,22,-10,-5,10,5,"Boston - George H Conley","450 Poplar Street, Roslindale, MA 02131"
4,"42.275 -71.091","-71.091","42.275",0,50,25,-25,25,25,25,"Boston - Mildred Avenue K-8","5 Mildred Avenue, Mattapan, MA 02126"
4,"42.276 -71.066","-71.066","42.276",22,20,45,25,23,25,23,"Conservatory Lab Charter - Conservatory Lab Charter School","2120 Dorchester Avenue, Dorchester, MA 02124"
4,"42.277 -71.077","-71.077","42.277",96,67,78,11,-18,11,18,"Boston - Charles H Taylor","1060 Morton Street, Mattapan, MA 02126"
4,"42.277 -71.135","-71.135","42.277",59,57,57,0,-2,0,2,"Boston - Phineas Bates","426 Beech Street, Roslindale, MA 02131"
4,"42.281 -71.093","-71.093","42.281",38,40,54,14,16,14,16,"Boston - Solomon Lewenberg Middle","20 Outlook Rd, Mattapan, MA 02126"
4,"42.281 -71.122","-71.122","42.281",0,54,66,12,66,12,66,"Edward Brooke Charter - Edward Brooke Charter School","190 Cummins Highway, Roslindale, MA 02131"
4,"42.281 -71.141","-71.141","42.281",19,24,25,1,6,1,6,"Boston - Mozart","236 Beech Street, Roslindale, MA 02131"
4,"42.282 -71.086","-71.086","42.282",45,0,0,0,-45,0,45,"Boston - Pauline Agassiz Shaw","429 Norfolk St, Dorchester, MA 02124"
4,"42.282 -71.158","-71.158","42.282",52,54,67,13,15,13,15,"Boston - Lyndon","20 Mt. Vernon Street, West Roxbury, MA 02132"
4,"42.285 -71.117","-71.117","42.285",18,20,23,3,5,3,5,"Boston - John D Philbrick","40 Philbrick Street, Roslindale, MA 02131"
4,"42.286 -71.053","-71.053","42.286",61,46,43,-3,-18,3,18,"Boston - Thomas J Kenny","19 Oakton Avenue, Dorchester, MA 02122"
4,"42.286 -71.072","-71.072","42.286",48,88,0,-88,-48,88,48,"Boston - Emily A Fifield","25 Dunbar Ave, Dorchester, MA 02124"
4,"42.286 -71.107","-71.107","42.286",46,41,49,8,3,8,3,"Boston - Dennis C Haley","570 American Legion Highway, Roslindale, MA 02131"
4,"42.286 -71.126","-71.126","42.286",76,74,74,0,-2,0,2,"Boston - Charles Sumner","15 Basile Street, Roslindale, MA 02131"
4,"42.292 -71.080","-71.080","42.292",95,60,72,12,-23,12,23,"Boston - Joseph Lee","155 Talbot Avenue, Dorchester, MA 02124"
4,"42.293 -71.053","-71.053","42.293",24,38,42,4,18,4,18,"Neighborhood House Charter (District) - Neighborhood House Charter School","21 Queen Street, Dorchester, MA 02122"
4,"42.293 -71.062","-71.062","42.293",41,43,23,-20,-18,20,18,"Boston - Dr. William Henderson Lower","1669 Dorchester Avenue, Dorchester, MA 02122"
4,"42.294 -71.049","-71.049","42.294",172,134,132,-2,-40,2,40,"Boston - Richard J Murphy","1 Worrell Street, Dorchester, MA 02122"
4,"42.294 -71.115","-71.115","42.294",0,0,29,29,29,29,29,"Boston - Boston Teachers Union School","25 Walk Hill Street, Jamaica Plain, MA 02130"
4,"42.295 -71.071","-71.071","42.295",31,0,0,0,-31,0,31,"Boston - Lucy Stone","22 Regina Rd, Dorchester, MA 02124"
4,"42.295 -71.091","-71.091","42.295",0,0,60,60,60,60,60,"Brooke Charter School Mattapan - Brooke Charter School Mattapan","150 American Legion Highway, Boston, MA 02124"
4,"42.296 -71.074","-71.074","42.296",33,33,50,17,17,17,17,"Boston - O W Holmes","40 School Street, Dorchester, MA 02124"
4,"42.296 -71.080","-71.080","42.296",38,43,46,3,8,3,8,"Boston - Sarah Greenwood","189 Glenway Street, Dorchester, MA 02121"
4,"42.299 -71.070","-71.070","42.299",100,95,74,-21,-26,21,26,"UP Academy Charter School of Dorchester (District) - UP Academy Charter School of Dorchester","35 Westville Street, Boston, MA 02124"
4,"42.305 -71.131","-71.131","42.305",32,25,25,0,-7,0,7,"Boston - Joseph P Manning","130 Louders Lane, Jamaica Plain, MA 02130"
4,"42.306 -71.073","-71.073","42.306",118,97,109,12,-9,12,9,"Boston - UP Academy Holland","85 Olney Street, Dorchester, MA 02121"
4,"42.307 -71.062","-71.062","42.307",82,75,99,24,17,24,17,"Boston - Mather","1 Parish Street, Dorchester, MA 02122"
4,"42.307 -71.113","-71.113","42.307",16,19,18,-1,2,1,2,"Boston - Margarita Muniz Academy","20 Child Street, Boston, MA 02130"
4,"42.307 -71.114","-71.114","42.307",105,73,0,-73,-105,73,105,"Boston - Agassiz","20 Child St, Jamaica Plain, MA 02130"
4,"42.311 -71.063","-71.063","42.311",0,40,41,1,41,1,41,"Dorchester Collegiate Academy Charter - Dorchester Collegiate Academy Charter","131 HANCOCK ST, DORCHESTER, MA 02125"
4,"42.311 -71.073","-71.073","42.311",34,0,0,0,-34,0,34,"Boston - Quincy E Dickerman","206 Magnolia St, Dorchester, MA 02121"
4,"42.311 -71.076","-71.076","42.311",0,25,50,25,50,25,50,"Boston - Martin Luther King Jr Mid","77 Lawrence Ave., Dorchester, MA 02121"
4,"42.313 -71.098","-71.098","42.313",42,47,45,-2,3,2,3,"Boston - Rafael Hernandez","61 School Street, Roxbury, MA 02119"
4,"42.314 -71.059","-71.059","42.314",42,47,45,-2,3,2,3,"Boston - Edward Everett","71 Pleasant Street, Dorchester, MA 02125"
4,"42.315 -71.087","-71.087","42.315",87,47,50,3,-37,3,37,"Boston - William Monroe Trotter","135 Humboldt Avenue, Dorchester, MA 02121"
4,"42.316 -71.093","-71.093","42.316",55,36,56,20,1,20,1,"Boston - David A Ellis","302 Walnut Avenue, Roxbury, MA 02119"
4,"42.316 -71.101","-71.101","42.316",27,14,29,15,2,15,2,"Boston - Ellis Mendell","164 School Street, Roxbury, MA 02119"
4,"42.317 -71.042","-71.042","42.317",79,64,87,23,8,23,8,"Boston - Paul A Dever","325 Mt Vernon Street, Dorchester, MA 02125"
4,"42.317 -71.091","-71.091","42.317",25,0,0,0,-25,0,25,"Boston - Higginson","160 Harrishof Street, Roxbury, MA 02119"
4,"42.318 -71.075","-71.075","42.318",54,51,54,3,0,3,0,"Boston - John Winthrop","35 Brookford Street, Dorchester, MA 02125"
4,"42.318 -71.113","-71.113","42.318",42,52,89,37,47,37,47,"Boston - Mary E Curley Middle","493 Centre St, Jamaica Plain, MA 02130"
4,"42.320 -71.059","-71.059","42.320",56,57,40,-17,-16,17,16,"Boston - William E Russell","750 Columbia Road, Dorchester, MA 02125"
4,"42.321 -71.085","-71.085","42.321",0,13,49,36,49,36,49,"Boston - Higginson/Lewis K-8","131 Walnut Avenue, Roxbury, MA 02119"
4,"42.321 -71.106","-71.106","42.321",69,63,62,-1,-7,1,7,"Boston - John F Kennedy","7 Bolster Street, Jamaica Plain, MA 02130"
4,"42.323 -71.058","-71.058","42.323",25,23,23,0,-2,0,2,"Boston - Roger Clap","35 Harvest Street, Dorchester, MA 02125"
4,"42.323 -71.073","-71.073","42.323",35,45,0,-45,-35,45,35,"Dudley Street Neighborhood Charter School - Dudley Street Neighborhood Charter School","6 Shirley Street, Boston, MA 02119"
4,"42.325 -71.091","-71.091","42.325",43,34,22,-12,-21,12,21,"Boston - Nathan Hale","51 Cedar Street, Roxbury, MA 02119"
4,"42.326 -71.071","-71.071","42.326",30,27,35,8,5,8,5,"Boston - Samuel W Mason","150 Norfolk Avenue, Roxbury, MA 02119"
4,"42.326 -71.106","-71.106","42.326",121,112,133,21,12,21,12,"Boston - James W Hennigan","200 Heath Street, Jamaica Plain, MA 02130"
4,"42.330 -71.077","-71.077","42.330",72,74,95,21,23,21,23,"Boston - Orchard Gardens ","906 Albany Street, Roxbury, MA 02119"
4,"42.331 -71.050","-71.050","42.331",30,24,26,2,-4,2,4,"Boston - Michael J Perkins","50 Burke Street, South Boston, MA 02127"
4,"42.332 -71.030","-71.030","42.332",19,20,32,12,13,12,13,"Boston - Oliver Hazard Perry","745 E. 7th Street, South Boston, MA 02127"
4,"42.333 -71.098","-71.098","42.333",48,53,48,-5,0,5,0,"Boston - Maurice J Tobin","40 Smith St, Roxbury, MA 02120"
4,"42.334 -71.038","-71.038","42.334",54,49,43,-6,-11,6,11,"Boston - Joseph P Tynan","650 E.  Fourth Street, South Boston, MA 02127"
4,"42.334 -71.106","-71.106","42.334",41,36,0,-36,-41,36,41,"Boston - Farragut","10 Fenwood Road, Boston, MA 02115"
4,"42.338 -71.052","-71.052","42.338",111,133,135,2,24,2,24,"Boston - James Condon Elementary","200 D Street, South Boston, MA 02127"
4,"42.339 -71.077","-71.077","42.339",35,52,40,-12,5,12,5,"Boston - Joseph J Hurley","70 Worcester Street, Boston, MA 02118"
4,"42.340 -71.073","-71.073","42.340",104,82,84,2,-20,2,20,"Boston - Blackstone","380 Shawmut Avenue, Boston, MA 02118"
4,"42.340 -71.084","-71.084","42.340",0,1,0,-1,0,1,0,"Boston - Carter Develop Day Care","396 Northampton Street, Boston, MA 02118"
4,"42.340 -71.154","-71.154","42.340",33,0,0,0,-33,0,33,"Boston - Alexander Hamilton","198 Strathmore Rd, Brighton, MA 02135"
4,"42.344 -71.073","-71.073","42.344",19,5,16,11,-3,11,3,"Boston - William McKinley","90 Warren Avenue, Boston, MA 02116"
4,"42.345 -71.160","-71.160","42.345",0,68,84,16,84,16,84,"Boston - Thomas A Edison Jr High","60 Glenmont Road, Brighton, MA 02135"
4,"42.347 -71.064","-71.064","42.347",144,145,127,-18,-17,18,17,"Boston - Josiah Quincy","885 Washington Street, Boston, MA 02111"
4,"42.347 -71.154","-71.154","42.347",22,24,41,17,19,17,19,"Boston - Winship Elementary","54 Dighton Street, Brighton, MA 02135"
4,"42.351 -71.137","-71.137","42.351",103,83,90,7,-13,7,13,"Boston - Horace Mann School for the Deaf","40 Armington  Street, Allston, MA 02134"
4,"42.351 -71.161","-71.161","42.351",11,14,17,3,6,3,6,"Boston - Lyon K-8","50 Beechcroft Street, Brighton, MA 02135"
4,"42.352 -71.120","-71.120","42.352",0,0,51,51,51,51,51,"Media and Technology Charter - Media and Technology Charter School","1001 Commonwealth Avenue, Boston, MA 02215"
4,"42.352 -71.160","-71.160","42.352",39,0,0,0,-39,0,39,"Boston - Lyon Upper 9-12","95 Beechcroft Street, Brighton, MA 02135"
4,"42.360 -71.133","-71.133","42.360",40,48,46,-2,6,2,6,"Boston - Thomas Gardner","30 Athol Street, Allston, MA 02134"
4,"42.365 -71.034","-71.034","42.365",27,30,39,9,12,9,12,"Boston - Samuel Adams","165 Webster Street, East Boston, MA 02128"
4,"42.366 -71.053","-71.053","42.366",27,30,46,16,19,16,19,"Boston - Eliot Elementary","16 Charter Street, Boston, MA 02113"
4,"42.375 -71.033","-71.033","42.375",53,46,63,17,10,17,10,"Boston - James Otis","218 Marion Street, East Boston, MA 02128"
4,"42.376 -71.057","-71.057","42.376",77,76,73,-3,-4,3,4,"Boston - Harvard-Kent","50 Bunker Hill Street, Charlestown, MA 02129"
4,"42.378 -71.030","-71.030","42.378",32,39,34,-5,2,5,2,"Boston - Patrick J Kennedy","343 Saratoga Street, East Boston, MA 02128"
4,"42.378 -71.038","-71.038","42.378",33,35,50,15,17,15,17,"Boston - Hugh Roe ODonnell","33 Trenton Street, East Boston, MA 02128"
4,"42.378 -71.040","-71.040","42.378",0,0,26,26,26,26,26,"Boston - Mario Umana Middle School Academy","312 Border St, East Boston, MA 02128"
4,"42.378 -71.064","-71.064","42.378",66,42,68,26,2,26,2,"Boston - Warren-Prescott","50 School Street, Charlestown, MA 02129"
4,"42.388 -71.004","-71.004","42.388",36,48,54,6,18,6,18,"Boston - Curtis Guild","195 Leyden Street, East Boston, MA 02128"
4,"42.390 -71.027","-71.027","42.390",87,102,85,-17,-2,17,2,"Boston - Donald Mckay","122 Cottage Street, East Boston, MA 02128"
4,"42.391 -71.005","-71.005","42.391",55,48,57,9,2,9,2,"Boston - Manassah E Bradley","110 Beachview Road, East Boston, MA 02128"
4,"42.392 -71.031","-71.031","42.392",13,21,6,-15,-7,15,7,"Boston - Dante Alighieri","37 Grove Street, East Boston, MA 02128"
5,"42.242 -71.123","-71.123","42.242",40,40,40,0,0,0,0,"Boston - Franklin D Roosevelt","95 Needham Road, Hyde Park, MA 02136"
5,"42.246 -71.131","-71.131","42.246",0,84,77,-7,77,7,77,"Academy Of the Pacific Rim Charter Public (District) - Academy Of the Pacific Rim Charter Public School","1 Westinghouse Plaza, Hyde Park, MA 02136"
5,"42.250 -71.126","-71.126","42.250",170,94,121,27,-49,27,49,"Boston Renaissance Charter Public (District) - Boston Renaissance Charter  Public School","1415 Hyde Park Ave, Hyde Park, MA 02136"
5,"42.251 -71.133","-71.133","42.251",53,62,48,-14,-5,14,5,"Boston - William Ellery Channing","35 Sunnyside Street, Hyde Park, MA 02136"
5,"42.256 -71.126","-71.126","42.256",47,38,33,-5,-14,5,14,"Boston - Henry Grew","40 Gordon Avenue, Hyde Park, MA 02136"
5,"42.261 -71.148","-71.148","42.261",74,117,104,-13,30,13,30,"Boston - William H Ohrenberger","175 West  Boundary Road, West Roxbury, MA 02132"
5,"42.263 -71.155","-71.155","42.263",47,0,0,0,-47,0,47,"Boston - Beethoven","5125 Washington Street, West Roxbury, MA 02132"
5,"42.265 -71.117","-71.117","42.265",73,56,48,-8,-25,8,25,"Boston - Elihu Greenwood Leadership Academy","612 Metropolitan Avenue, Hyde Park, MA 02136"
5,"42.267 -71.105","-71.105","42.267",43,43,38,-5,-5,5,5,"Boston - James J Chittick","154 Ruskindale Road, Mattapan, MA 02126"
5,"42.271 -71.163","-71.163","42.271",37,46,46,0,9,0,9,"Boston - Joyce Kilmer","35 Baker Street, West Roxbury, MA 02132"
5,"42.274 -71.106","-71.106","42.274",86,80,58,-22,-28,22,28,"Boston - Mattahunt","100 Hebron Street, Mattapan, MA 02126"
5,"42.274 -71.127","-71.127","42.274",26,30,22,-8,-4,8,4,"Boston - George H Conley","450 Poplar Street, Roslindale, MA 02131"
5,"42.275 -71.091","-71.091","42.275",0,48,37,-11,37,11,37,"Boston - Mildred Avenue K-8","5 Mildred Avenue, Mattapan, MA 02126"
5,"42.276 -71.066","-71.066","42.276",19,19,42,23,23,23,23,"Conservatory Lab Charter - Conservatory Lab Charter School","2120 Dorchester Avenue, Dorchester, MA 02124"
5,"42.277 -71.077","-71.077","42.277",93,75,75,0,-18,0,18,"Boston - Charles H Taylor","1060 Morton Street, Mattapan, MA 02126"
5,"42.277 -71.135","-71.135","42.277",67,47,46,-1,-21,1,21,"Boston - Phineas Bates","426 Beech Street, Roslindale, MA 02131"
5,"42.281 -71.069","-71.069","42.281",0,0,43,43,43,43,43,"Boston - Harbor School","18 Croftland Av  , Dorchester, MA 02124"
5,"42.281 -71.093","-71.093","42.281",24,38,46,8,22,8,22,"Boston - Solomon Lewenberg Middle","20 Outlook Rd, Mattapan, MA 02126"
5,"42.281 -71.122","-71.122","42.281",86,48,54,6,-32,6,32,"Edward Brooke Charter - Edward Brooke Charter School","190 Cummins Highway, Roslindale, MA 02131"
5,"42.281 -71.141","-71.141","42.281",23,19,21,2,-2,2,2,"Boston - Mozart","236 Beech Street, Roslindale, MA 02131"
5,"42.282 -71.086","-71.086","42.282",55,0,0,0,-55,0,55,"Boston - Pauline Agassiz Shaw","429 Norfolk St, Dorchester, MA 02124"
5,"42.282 -71.158","-71.158","42.282",53,65,44,-21,-9,21,9,"Boston - Lyndon","20 Mt. Vernon Street, West Roxbury, MA 02132"
5,"42.285 -71.117","-71.117","42.285",18,9,23,14,5,14,5,"Boston - John D Philbrick","40 Philbrick Street, Roslindale, MA 02131"
5,"42.286 -71.053","-71.053","42.286",57,38,37,-1,-20,1,20,"Boston - Thomas J Kenny","19 Oakton Avenue, Dorchester, MA 02122"
5,"42.286 -71.072","-71.072","42.286",39,80,0,-80,-39,80,39,"Boston - Emily A Fifield","25 Dunbar Ave, Dorchester, MA 02124"
5,"42.286 -71.107","-71.107","42.286",37,44,46,2,9,2,9,"Boston - Dennis C Haley","570 American Legion Highway, Roslindale, MA 02131"
5,"42.286 -71.126","-71.126","42.286",97,66,57,-9,-40,9,40,"Boston - Charles Sumner","15 Basile Street, Roslindale, MA 02131"
5,"42.292 -71.080","-71.080","42.292",110,69,78,9,-32,9,32,"Boston - Joseph Lee","155 Talbot Avenue, Dorchester, MA 02124"
5,"42.293 -71.053","-71.053","42.293",20,42,41,-1,21,1,21,"Neighborhood House Charter (District) - Neighborhood House Charter School","21 Queen Street, Dorchester, MA 02122"
5,"42.293 -71.062","-71.062","42.293",39,20,0,-20,-39,20,39,"Boston - Dr. William Henderson Lower","1669 Dorchester Avenue, Dorchester, MA 02122"
5,"42.294 -71.049","-71.049","42.294",167,137,114,-23,-53,23,53,"Boston - Richard J Murphy","1 Worrell Street, Dorchester, MA 02122"
5,"42.294 -71.115","-71.115","42.294",0,0,20,20,20,20,20,"Boston - Boston Teachers Union School","25 Walk Hill Street, Jamaica Plain, MA 02130"
5,"42.295 -71.071","-71.071","42.295",25,0,0,0,-25,0,25,"Boston - Lucy Stone","22 Regina Rd, Dorchester, MA 02124"
5,"42.295 -71.091","-71.091","42.295",0,0,57,57,57,57,57,"Brooke Charter School Mattapan - Brooke Charter School Mattapan","150 American Legion Highway, Boston, MA 02124"
5,"42.296 -71.072","-71.072","42.296",0,0,16,16,16,16,16,"Codman Academy Charter Public (District) - Codman Academy Charter Public School","637 Washington Street, Dorchester, MA 02124"
5,"42.296 -71.074","-71.074","42.296",29,42,34,-8,5,8,5,"Boston - O W Holmes","40 School Street, Dorchester, MA 02124"
5,"42.296 -71.080","-71.080","42.296",37,31,38,7,1,7,1,"Boston - Sarah Greenwood","189 Glenway Street, Dorchester, MA 02121"
5,"42.299 -71.070","-71.070","42.299",114,98,79,-19,-35,19,35,"UP Academy Charter School of Dorchester (District) - UP Academy Charter School of Dorchester","35 Westville Street, Boston, MA 02124"
5,"42.305 -71.131","-71.131","42.305",23,26,25,-1,2,1,2,"Boston - Joseph P Manning","130 Louders Lane, Jamaica Plain, MA 02130"
5,"42.306 -71.073","-71.073","42.306",114,97,75,-22,-39,22,39,"Boston - UP Academy Holland","85 Olney Street, Dorchester, MA 02121"
5,"42.307 -71.062","-71.062","42.307",88,75,74,-1,-14,1,14,"Boston - Mather","1 Parish Street, Dorchester, MA 02122"
5,"42.307 -71.113","-71.113","42.307",16,18,19,1,3,1,3,"Boston - Margarita Muniz Academy","20 Child Street, Boston, MA 02130"
5,"42.307 -71.114","-71.114","42.307",116,71,0,-71,-116,71,116,"Boston - Agassiz","20 Child St, Jamaica Plain, MA 02130"
5,"42.311 -71.063","-71.063","42.311",0,0,40,40,40,40,40,"Dorchester Collegiate Academy Charter - Dorchester Collegiate Academy Charter","131 HANCOCK ST, DORCHESTER, MA 02125"
5,"42.311 -71.073","-71.073","42.311",22,0,0,0,-22,0,22,"Boston - Quincy E Dickerman","206 Magnolia St, Dorchester, MA 02121"
5,"42.311 -71.076","-71.076","42.311",0,23,27,4,27,4,27,"Boston - Martin Luther King Jr Mid","77 Lawrence Ave., Dorchester, MA 02121"
5,"42.313 -71.098","-71.098","42.313",40,41,38,-3,-2,3,2,"Boston - Rafael Hernandez","61 School Street, Roxbury, MA 02119"
5,"42.314 -71.059","-71.059","42.314",46,39,41,2,-5,2,5,"Boston - Edward Everett","71 Pleasant Street, Dorchester, MA 02125"
5,"42.315 -71.087","-71.087","42.315",90,62,39,-23,-51,23,51,"Boston - William Monroe Trotter","135 Humboldt Avenue, Dorchester, MA 02121"
5,"42.316 -71.093","-71.093","42.316",56,41,33,-8,-23,8,23,"Boston - David A Ellis","302 Walnut Avenue, Roxbury, MA 02119"
5,"42.316 -71.101","-71.101","42.316",25,28,24,-4,-1,4,1,"Boston - Ellis Mendell","164 School Street, Roxbury, MA 02119"
5,"42.317 -71.042","-71.042","42.317",65,62,72,10,7,10,7,"Boston - Paul A Dever","325 Mt Vernon Street, Dorchester, MA 02125"
5,"42.317 -71.081","-71.081","42.317",0,0,72,72,72,72,72,"KIPP Academy Boston Charter School (District) - KIPP Academy Boston Charter School","384 Warren Street, Boston, MA 02119"
5,"42.317 -71.091","-71.091","42.317",19,0,0,0,-19,0,19,"Boston - Higginson","160 Harrishof Street, Roxbury, MA 02119"
5,"42.318 -71.075","-71.075","42.318",52,56,41,-15,-11,15,11,"Boston - John Winthrop","35 Brookford Street, Dorchester, MA 02125"
5,"42.318 -71.113","-71.113","42.318",48,53,87,34,39,34,39,"Boston - Mary E Curley Middle","493 Centre St, Jamaica Plain, MA 02130"
5,"42.320 -71.059","-71.059","42.320",63,54,41,-13,-22,13,22,"Boston - William E Russell","750 Columbia Road, Dorchester, MA 02125"
5,"42.321 -71.060","-71.060","42.321",66,99,103,4,37,4,37,"Boston Collegiate Charter (District) - Boston Collegiate Charter School","11 Mayhew Street, Dorchester, MA 02125"
5,"42.321 -71.085","-71.085","42.321",0,26,42,16,42,16,42,"Boston - Higginson/Lewis K-8","131 Walnut Avenue, Roxbury, MA 02119"
5,"42.321 -71.106","-71.106","42.321",63,53,55,2,-8,2,8,"Boston - John F Kennedy","7 Bolster Street, Jamaica Plain, MA 02130"
5,"42.323 -71.058","-71.058","42.323",23,24,21,-3,-2,3,2,"Boston - Roger Clap","35 Harvest Street, Dorchester, MA 02125"
5,"42.323 -71.073","-71.073","42.323",36,41,0,-41,-36,41,36,"Dudley Street Neighborhood Charter School - Dudley Street Neighborhood Charter School","6 Shirley Street, Boston, MA 02119"
5,"42.325 -71.091","-71.091","42.325",24,18,22,4,-2,4,2,"Boston - Nathan Hale","51 Cedar Street, Roxbury, MA 02119"
5,"42.326 -71.071","-71.071","42.326",28,28,32,4,4,4,4,"Boston - Samuel W Mason","150 Norfolk Avenue, Roxbury, MA 02119"
5,"42.326 -71.106","-71.106","42.326",111,111,100,-11,-11,11,11,"Boston - James W Hennigan","200 Heath Street, Jamaica Plain, MA 02130"
5,"42.327 -71.105","-71.105","42.327",0,0,249,249,249,249,249,"Roxbury Preparatory Charter (District) - Roxbury Preparatory Charter School","120 Fisher Avenue, Roxbury, MA 02120"
5,"42.330 -71.077","-71.077","42.330",63,73,97,24,34,24,34,"Boston - Orchard Gardens ","906 Albany Street, Roxbury, MA 02119"
5,"42.331 -71.050","-71.050","42.331",27,24,23,-1,-4,1,4,"Boston - Michael J Perkins","50 Burke Street, South Boston, MA 02127"
5,"42.332 -71.030","-71.030","42.332",23,20,23,3,0,3,0,"Boston - Oliver Hazard Perry","745 E. 7th Street, South Boston, MA 02127"
5,"42.333 -71.098","-71.098","42.333",59,62,29,-33,-30,33,30,"Boston - Maurice J Tobin","40 Smith St, Roxbury, MA 02120"
5,"42.334 -71.038","-71.038","42.334",44,31,47,16,3,16,3,"Boston - Joseph P Tynan","650 E.  Fourth Street, South Boston, MA 02127"
5,"42.334 -71.106","-71.106","42.334",39,42,0,-42,-39,42,39,"Boston - Farragut","10 Fenwood Road, Boston, MA 02115"
5,"42.338 -71.052","-71.052","42.338",123,108,121,13,-2,13,2,"Boston - James Condon Elementary","200 D Street, South Boston, MA 02127"
5,"42.339 -71.035","-71.035","42.339",64,0,0,0,-64,0,64,"Uphams Corner Charter - Uphams Corner Charter School","7 Elkins Street, Boston, MA 02127"
5,"42.339 -71.077","-71.077","42.339",39,37,35,-2,-4,2,4,"Boston - Joseph J Hurley","70 Worcester Street, Boston, MA 02118"
5,"42.340 -71.073","-71.073","42.340",109,73,69,-4,-40,4,40,"Boston - Blackstone","380 Shawmut Avenue, Boston, MA 02118"
5,"42.340 -71.154","-71.154","42.340",38,0,0,0,-38,0,38,"Boston - Alexander Hamilton","198 Strathmore Rd, Brighton, MA 02135"
5,"42.344 -71.073","-71.073","42.344",33,21,32,11,-1,11,1,"Boston - William McKinley","90 Warren Avenue, Boston, MA 02116"
5,"42.345 -71.160","-71.160","42.345",0,56,83,27,83,27,83,"Boston - Thomas A Edison Jr High","60 Glenmont Road, Brighton, MA 02135"
5,"42.347 -71.064","-71.064","42.347",144,138,139,1,-5,1,5,"Boston - Josiah Quincy","885 Washington Street, Boston, MA 02111"
5,"42.347 -71.154","-71.154","42.347",24,23,40,17,16,17,16,"Boston - Winship Elementary","54 Dighton Street, Brighton, MA 02135"
5,"42.351 -71.137","-71.137","42.351",90,90,77,-13,-13,13,13,"Boston - Horace Mann School for the Deaf","40 Armington  Street, Allston, MA 02134"
5,"42.351 -71.161","-71.161","42.351",17,13,16,3,-1,3,1,"Boston - Lyon K-8","50 Beechcroft Street, Brighton, MA 02135"
5,"42.352 -71.120","-71.120","42.352",0,0,50,50,50,50,50,"Media and Technology Charter - Media and Technology Charter School","1001 Commonwealth Avenue, Boston, MA 02215"
5,"42.352 -71.160","-71.160","42.352",32,0,0,0,-32,0,32,"Boston - Lyon Upper 9-12","95 Beechcroft Street, Brighton, MA 02135"
5,"42.360 -71.133","-71.133","42.360",45,47,42,-5,-3,5,3,"Boston - Thomas Gardner","30 Athol Street, Allston, MA 02134"
5,"42.365 -71.034","-71.034","42.365",30,28,27,-1,-3,1,3,"Boston - Samuel Adams","165 Webster Street, East Boston, MA 02128"
5,"42.366 -71.053","-71.053","42.366",35,30,39,9,4,9,4,"Boston - Eliot Elementary","16 Charter Street, Boston, MA 02113"
5,"42.375 -71.033","-71.033","42.375",41,43,39,-4,-2,4,2,"Boston - James Otis","218 Marion Street, East Boston, MA 02128"
5,"42.376 -71.057","-71.057","42.376",63,62,72,10,9,10,9,"Boston - Harvard-Kent","50 Bunker Hill Street, Charlestown, MA 02129"
5,"42.378 -71.030","-71.030","42.378",34,25,22,-3,-12,3,12,"Boston - Patrick J Kennedy","343 Saratoga Street, East Boston, MA 02128"
5,"42.378 -71.038","-71.038","42.378",27,38,46,8,19,8,19,"Boston - Hugh Roe ODonnell","33 Trenton Street, East Boston, MA 02128"
5,"42.378 -71.040","-71.040","42.378",0,0,26,26,26,26,26,"Boston - Mario Umana Middle School Academy","312 Border St, East Boston, MA 02128"
5,"42.378 -71.064","-71.064","42.378",45,52,57,5,12,5,12,"Boston - Warren-Prescott","50 School Street, Charlestown, MA 02129"
5,"42.382 -71.016","-71.016","42.382",0,0,60,60,60,60,60,"Brooke Charter School East Boston - Brooke Charter School East Boston","94 Horace, East Boston, MA 02128"
5,"42.382 -71.018","-71.018","42.382",0,54,167,113,167,113,167,"Excel Academy Charter - Excel Academy Charter School","58 Moore Street, East Boston, MA 02128"
5,"42.388 -71.004","-71.004","42.388",30,41,38,-3,8,3,8,"Boston - Curtis Guild","195 Leyden Street, East Boston, MA 02128"
5,"42.390 -71.027","-71.027","42.390",80,101,76,-25,-4,25,4,"Boston - Donald Mckay","122 Cottage Street, East Boston, MA 02128"
5,"42.391 -71.005","-71.005","42.391",43,44,36,-8,-7,8,7,"Boston - Manassah E Bradley","110 Beachview Road, East Boston, MA 02128"
5,"42.392 -71.031","-71.031","42.392",19,21,0,-21,-19,21,19,"Boston - Dante Alighieri","37 Grove Street, East Boston, MA 02128"
6,"42.242 -71.123","-71.123","42.242",0,54,47,-7,47,7,47,"Boston - Franklin D Roosevelt","95 Needham Road, Hyde Park, MA 02136"
6,"42.246 -71.131","-71.131","42.246",77,83,74,-9,-3,9,3,"Academy Of the Pacific Rim Charter Public (District) - Academy Of the Pacific Rim Charter Public School","1 Westinghouse Plaza, Hyde Park, MA 02136"
6,"42.250 -71.126","-71.126","42.250",174,66,96,30,-78,30,78,"Boston Renaissance Charter Public (District) - Boston Renaissance Charter  Public School","1415 Hyde Park Ave, Hyde Park, MA 02136"
6,"42.254 -71.123","-71.123","42.254",106,87,58,-29,-48,29,48,"Boston Preparatory Charter Public - Boston Preparatory Charter Public School","1286 Hyde Park Avenue, Hyde Park, MA 02136"
6,"42.258 -71.122","-71.122","42.258",189,247,73,-174,-116,174,116,"Boston - Wm B Rogers Middle","15 Everett Street, Hyde Park, MA 02136"
6,"42.261 -71.148","-71.148","42.261",0,127,115,-12,115,12,115,"Boston - William H Ohrenberger","175 West  Boundary Road, West Roxbury, MA 02132"
6,"42.271 -71.163","-71.163","42.271",0,46,57,11,57,11,57,"Boston - Joyce Kilmer","35 Baker Street, West Roxbury, MA 02132"
6,"42.275 -71.091","-71.091","42.275",0,155,110,-45,110,45,110,"Boston - Mildred Avenue K-8","5 Mildred Avenue, Mattapan, MA 02126"
6,"42.276 -71.066","-71.066","42.276",0,0,35,35,35,35,35,"Conservatory Lab Charter - Conservatory Lab Charter School","2120 Dorchester Avenue, Dorchester, MA 02124"
6,"42.276 -71.090","-71.090","42.276",184,0,0,0,-184,0,184,"Boston - Mildred Avenue Middle School","5 Mildred Ave, Boston, MA 02126"
6,"42.280 -71.069","-71.069","42.280",133,0,0,0,-133,0,133,"Boston - Woodrow Wilson Middle","18 Croftland Ave, Dorchester, MA 02124"
6,"42.281 -71.069","-71.069","42.281",97,107,66,-41,-31,41,31,"Boston - Harbor School","18 Croftland Av  , Dorchester, MA 02124"
6,"42.281 -71.093","-71.093","42.281",165,50,52,2,-113,2,113,"Boston - Solomon Lewenberg Middle","20 Outlook Rd, Mattapan, MA 02126"
6,"42.281 -71.121","-71.121","42.281",71,0,0,0,-71,0,71,"Frederick Douglass Charter - Frederick Douglass Charter School","190 Cummins Highway,Roslindale,MA,02131"
6,"42.281 -71.122","-71.122","42.281",85,39,53,14,-32,14,32,"Edward Brooke Charter - Edward Brooke Charter School","190 Cummins Highway, Roslindale, MA 02131"
6,"42.282 -71.158","-71.158","42.282",64,65,65,0,1,0,1,"Boston - Lyndon","20 Mt. Vernon Street, West Roxbury, MA 02132"
6,"42.283 -71.125","-71.125","42.283",273,212,113,-99,-160,99,160,"Boston - Washington Irving Middle","105 Cummins Highway, Roslindale, MA 02131"
6,"42.285 -71.075","-71.075","42.285",0,114,0,-114,0,114,0,"Boston - TechBoston Upper Academy","9 Peacevale Road, Dorchester, MA 02124"
6,"42.286 -71.107","-71.107","42.286",0,0,44,44,44,44,44,"Boston - Dennis C Haley","570 American Legion Highway, Roslindale, MA 02131"
6,"42.287 -71.076","-71.076","42.287",0,0,123,123,123,123,123,"Boston - TechBoston Academy","9 Peacevale Road, Dorchester, MA 02124"
6,"42.292 -71.080","-71.080","42.292",0,0,92,92,92,92,92,"Boston - Joseph Lee","155 Talbot Avenue, Dorchester, MA 02124"
6,"42.293 -71.053","-71.053","42.293",22,41,42,1,20,1,20,"Neighborhood House Charter (District) - Neighborhood House Charter School","21 Queen Street, Dorchester, MA 02122"
6,"42.294 -71.049","-71.049","42.294",142,142,142,0,0,0,0,"Boston - Richard J Murphy","1 Worrell Street, Dorchester, MA 02122"
6,"42.294 -71.115","-71.115","42.294",0,47,47,0,47,0,47,"Boston - Boston Teachers Union School","25 Walk Hill Street, Jamaica Plain, MA 02130"
6,"42.295 -71.091","-71.091","42.295",0,0,38,38,38,38,38,"Brooke Charter School Mattapan - Brooke Charter School Mattapan","150 American Legion Highway, Boston, MA 02124"
6,"42.296 -71.072","-71.072","42.296",0,0,21,21,21,21,21,"Codman Academy Charter Public (District) - Codman Academy Charter Public School","637 Washington Street, Dorchester, MA 02124"
6,"42.296 -71.080","-71.080","42.296",30,28,42,14,12,14,12,"Boston - Sarah Greenwood","189 Glenway Street, Dorchester, MA 02121"
6,"42.299 -71.070","-71.070","42.299",0,0,50,50,50,50,50,"UP Academy Charter School of Dorchester (District) - UP Academy Charter School of Dorchester","35 Westville Street, Boston, MA 02124"
6,"42.301 -71.058","-71.058","42.301",86,50,69,19,-17,19,17,"Helen Y. Davis Leadership Academy Charter Public (District) - Helen Y. Davis Leadership Academy Charter Public School","23 Leonard Street, Boston, MA 02122"
6,"42.307 -71.081","-71.081","42.307",156,67,49,-18,-107,18,107,"Boston - Jeremiah E Burke High","60 Washington Street, Dorchester, MA 02121"
6,"42.307 -71.113","-71.113","42.307",21,16,18,2,-3,2,3,"Boston - Margarita Muniz Academy","20 Child Street, Boston, MA 02130"
6,"42.308 -71.074","-71.074","42.308",234,204,147,-57,-87,57,87,"Boston - Lilla G. Frederick Middle School","270 Columbia Road, Dorchester, MA 02121"
6,"42.311 -71.063","-71.063","42.311",0,0,29,29,29,29,29,"Dorchester Collegiate Academy Charter - Dorchester Collegiate Academy Charter","131 HANCOCK ST, DORCHESTER, MA 02125"
6,"42.311 -71.076","-71.076","42.311",107,36,40,4,-67,4,67,"Boston - Martin Luther King Jr Mid","77 Lawrence Ave., Dorchester, MA 02121"
6,"42.313 -71.098","-71.098","42.313",39,39,39,0,0,0,0,"Boston - Rafael Hernandez","61 School Street, Roxbury, MA 02119"
6,"42.315 -71.087","-71.087","42.315",0,0,51,51,51,51,51,"Boston - William Monroe Trotter","135 Humboldt Avenue, Dorchester, MA 02121"
6,"42.317 -71.044","-71.044","42.317",275,232,194,-38,-81,38,81,"Boston - John W McCormack","315 Mt Vernon Street, Dorchester, MA 02125"
6,"42.317 -71.081","-71.081","42.317",0,0,72,72,72,72,72,"KIPP Academy Boston Charter School (District) - KIPP Academy Boston Charter School","384 Warren Street, Boston, MA 02119"
6,"42.318 -71.113","-71.113","42.318",232,105,97,-8,-135,8,135,"Boston - Mary E Curley Middle","493 Centre St, Jamaica Plain, MA 02130"
6,"42.320 -71.086","-71.086","42.320",110,0,0,0,-110,0,110,"Boston - Lewis Middle School","131 Walnut Avenue, Roxbury, MA 02119"
6,"42.321 -71.060","-71.060","42.321",88,98,100,2,12,2,12,"Boston Collegiate Charter (District) - Boston Collegiate Charter School","11 Mayhew Street, Dorchester, MA 02125"
6,"42.321 -71.085","-71.085","42.321",0,62,26,-36,26,36,26,"Boston - Higginson/Lewis K-8","131 Walnut Avenue, Roxbury, MA 02119"
6,"42.326 -71.106","-71.106","42.326",0,0,92,92,92,92,92,"Boston - James W Hennigan","200 Heath Street, Jamaica Plain, MA 02130"
6,"42.327 -71.105","-71.105","42.327",74,100,244,144,170,144,170,"Roxbury Preparatory Charter (District) - Roxbury Preparatory Charter School","120 Fisher Avenue, Roxbury, MA 02120"
6,"42.330 -71.077","-71.077","42.330",85,98,77,-21,-8,21,8,"Boston - Orchard Gardens ","906 Albany Street, Roxbury, MA 02119"
6,"42.330 -71.091","-71.091","42.330",256,273,145,-128,-111,128,111,"Boston - James P Timilty Middle","205 Roxbury Street, Roxbury, MA 02119"
6,"42.332 -71.030","-71.030","42.332",0,26,25,-1,25,1,25,"Boston - Oliver Hazard Perry","745 E. 7th Street, South Boston, MA 02127"
6,"42.333 -71.050","-71.050","42.333",181,152,165,13,-16,13,16,"UP Academy Charter School of Boston - UP Academy Charter School of Boston","215 Dorchester Street, South Boston, MA 02127"
6,"42.333 -71.098","-71.098","42.333",43,36,42,6,-1,6,1,"Boston - Maurice J Tobin","40 Smith St, Roxbury, MA 02120"
6,"42.339 -71.035","-71.035","42.339",44,0,0,0,-44,0,44,"Uphams Corner Charter - Uphams Corner Charter School","7 Elkins Street, Boston, MA 02127"
6,"42.339 -71.077","-71.077","42.339",0,12,30,18,30,18,30,"Boston - Joseph J Hurley","70 Worcester Street, Boston, MA 02118"
6,"42.340 -71.084","-71.084","42.340",2,1,0,-1,-2,1,2,"Boston - Carter Develop Day Care","396 Northampton Street, Boston, MA 02118"
6,"42.344 -71.073","-71.073","42.344",30,16,28,12,-2,12,2,"Boston - William McKinley","90 Warren Avenue, Boston, MA 02116"
6,"42.345 -71.160","-71.160","42.345",246,118,109,-9,-137,9,137,"Boston - Thomas A Edison Jr High","60 Glenmont Road, Brighton, MA 02135"
6,"42.348 -71.069","-71.069","42.348",142,147,131,-16,-11,16,11,"Boston - Quincy Upper School","152 Arlington Street, Boston, MA 02116"
6,"42.350 -71.145","-71.145","42.350",0,0,69,69,69,69,69,"Boston - Another Course To College","20 Warren Street, Brighton, MA 02135"
6,"42.351 -71.137","-71.137","42.351",19,108,95,-13,76,13,76,"Boston - Horace Mann School for the Deaf","40 Armington  Street, Allston, MA 02134"
6,"42.351 -71.161","-71.161","42.351",15,15,18,3,3,3,3,"Boston - Lyon K-8","50 Beechcroft Street, Brighton, MA 02135"
6,"42.352 -71.120","-71.120","42.352",0,87,90,3,90,3,90,"Media and Technology Charter - Media and Technology Charter School","1001 Commonwealth Avenue, Boston, MA 02215"
6,"42.356 -71.069","-71.069","42.356",135,0,0,0,-135,0,135,"Boston - Grover Cleveland","11 Charles St, Boston, MA 02114"
6,"42.360 -71.133","-71.133","42.360",0,0,44,44,44,44,44,"Boston - Thomas Gardner","30 Athol Street, Allston, MA 02134"
6,"42.366 -71.053","-71.053","42.366",0,33,39,6,39,6,39,"Boston - Eliot Elementary","16 Charter Street, Boston, MA 02113"
6,"42.378 -71.040","-71.040","42.378",216,144,170,26,-46,26,46,"Boston - Mario Umana Middle School Academy","312 Border St, East Boston, MA 02128"
6,"42.378 -71.064","-71.064","42.378",43,55,56,1,13,1,13,"Boston - Warren-Prescott","50 School Street, Charlestown, MA 02129"
6,"42.379 -71.066","-71.066","42.379",171,224,121,-103,-50,103,50,"Boston - Clarence R Edwards Middle","28 Walker Street, Charlestown, MA 02129"
6,"42.382 -71.016","-71.016","42.382",0,0,45,45,45,45,45,"Brooke Charter School East Boston - Brooke Charter School East Boston","94 Horace, East Boston, MA 02128"
6,"42.382 -71.018","-71.018","42.382",95,54,168,114,73,114,73,"Excel Academy Charter - Excel Academy Charter School","58 Moore Street, East Boston, MA 02128"
6,"42.390 -71.027","-71.027","42.390",45,68,82,14,37,14,37,"Boston - Donald Mckay","122 Cottage Street, East Boston, MA 02128"
7,"42.242 -71.123","-71.123","42.242",0,51,46,-5,46,5,46,"Boston - Franklin D Roosevelt","95 Needham Road, Hyde Park, MA 02136"
7,"42.246 -71.131","-71.131","42.246",71,75,77,2,6,2,6,"Academy Of the Pacific Rim Charter Public (District) - Academy Of the Pacific Rim Charter Public School","1 Westinghouse Plaza, Hyde Park, MA 02136"
7,"42.250 -71.126","-71.126","42.250",99,0,0,0,-99,0,99,"Boston Renaissance Charter Public (District) - Boston Renaissance Charter  Public School","1415 Hyde Park Ave, Hyde Park, MA 02136"
7,"42.254 -71.123","-71.123","42.254",0,83,58,-25,58,25,58,"Boston Preparatory Charter Public - Boston Preparatory Charter Public School","1286 Hyde Park Avenue, Hyde Park, MA 02136"
7,"42.258 -71.122","-71.122","42.258",192,161,100,-61,-92,61,92,"Boston - Wm B Rogers Middle","15 Everett Street, Hyde Park, MA 02136"
7,"42.261 -71.148","-71.148","42.261",0,0,90,90,90,90,90,"Boston - William H Ohrenberger","175 West  Boundary Road, West Roxbury, MA 02132"
7,"42.271 -71.163","-71.163","42.271",0,23,21,-2,21,2,21,"Boston - Joyce Kilmer","35 Baker Street, West Roxbury, MA 02132"
7,"42.275 -71.091","-71.091","42.275",0,174,62,-112,62,112,62,"Boston - Mildred Avenue K-8","5 Mildred Avenue, Mattapan, MA 02126"
7,"42.276 -71.066","-71.066","42.276",0,0,19,19,19,19,19,"Conservatory Lab Charter - Conservatory Lab Charter School","2120 Dorchester Avenue, Dorchester, MA 02124"
7,"42.276 -71.090","-71.090","42.276",207,0,0,0,-207,0,207,"Boston - Mildred Avenue Middle School","5 Mildred Ave, Boston, MA 02126"
7,"42.280 -71.069","-71.069","42.280",156,0,0,0,-156,0,156,"Boston - Woodrow Wilson Middle","18 Croftland Ave, Dorchester, MA 02124"
7,"42.281 -71.069","-71.069","42.281",79,88,58,-30,-21,30,21,"Boston - Harbor School","18 Croftland Av  , Dorchester, MA 02124"
7,"42.281 -71.093","-71.093","42.281",156,77,48,-29,-108,29,108,"Boston - Solomon Lewenberg Middle","20 Outlook Rd, Mattapan, MA 02126"
7,"42.281 -71.121","-71.121","42.281",72,0,0,0,-72,0,72,"Frederick Douglass Charter - Frederick Douglass Charter School","190 Cummins Highway,Roslindale,MA,02131"
7,"42.281 -71.122","-71.122","42.281",51,24,51,27,0,27,0,"Edward Brooke Charter - Edward Brooke Charter School","190 Cummins Highway, Roslindale, MA 02131"
7,"42.282 -71.158","-71.158","42.282",42,35,31,-4,-11,4,11,"Boston - Lyndon","20 Mt. Vernon Street, West Roxbury, MA 02132"
7,"42.283 -71.125","-71.125","42.283",233,185,105,-80,-128,80,128,"Boston - Washington Irving Middle","105 Cummins Highway, Roslindale, MA 02131"
7,"42.285 -71.075","-71.075","42.285",0,111,0,-111,0,111,0,"Boston - TechBoston Upper Academy","9 Peacevale Road, Dorchester, MA 02124"
7,"42.286 -71.107","-71.107","42.286",0,0,24,24,24,24,24,"Boston - Dennis C Haley","570 American Legion Highway, Roslindale, MA 02131"
7,"42.287 -71.076","-71.076","42.287",0,0,134,134,134,134,134,"Boston - TechBoston Academy","9 Peacevale Road, Dorchester, MA 02124"
7,"42.292 -71.080","-71.080","42.292",0,0,64,64,64,64,64,"Boston - Joseph Lee","155 Talbot Avenue, Dorchester, MA 02124"
7,"42.293 -71.053","-71.053","42.293",22,38,38,0,16,0,16,"Neighborhood House Charter (District) - Neighborhood House Charter School","21 Queen Street, Dorchester, MA 02122"
7,"42.294 -71.049","-71.049","42.294",54,78,79,1,25,1,25,"Boston - Richard J Murphy","1 Worrell Street, Dorchester, MA 02122"
7,"42.294 -71.115","-71.115","42.294",0,0,47,47,47,47,47,"Boston - Boston Teachers Union School","25 Walk Hill Street, Jamaica Plain, MA 02130"
7,"42.295 -71.091","-71.091","42.295",0,0,34,34,34,34,34,"Brooke Charter School Mattapan - Brooke Charter School Mattapan","150 American Legion Highway, Boston, MA 02124"
7,"42.296 -71.080","-71.080","42.296",26,26,27,1,1,1,1,"Boston - Sarah Greenwood","189 Glenway Street, Dorchester, MA 02121"
7,"42.301 -71.058","-71.058","42.301",80,49,84,35,4,35,4,"Helen Y. Davis Leadership Academy Charter Public (District) - Helen Y. Davis Leadership Academy Charter Public School","23 Leonard Street, Boston, MA 02122"
7,"42.307 -71.081","-71.081","42.307",145,83,62,-21,-83,21,83,"Boston - Jeremiah E Burke High","60 Washington Street, Dorchester, MA 02121"
7,"42.307 -71.113","-71.113","42.307",12,13,16,3,4,3,4,"Boston - Margarita Muniz Academy","20 Child Street, Boston, MA 02130"
7,"42.308 -71.074","-71.074","42.308",238,220,184,-36,-54,36,54,"Boston - Lilla G. Frederick Middle School","270 Columbia Road, Dorchester, MA 02121"
7,"42.311 -71.063","-71.063","42.311",0,0,38,38,38,38,38,"Dorchester Collegiate Academy Charter - Dorchester Collegiate Academy Charter","131 HANCOCK ST, DORCHESTER, MA 02125"
7,"42.311 -71.076","-71.076","42.311",110,68,23,-45,-87,45,87,"Boston - Martin Luther King Jr Mid","77 Lawrence Ave., Dorchester, MA 02121"
7,"42.313 -71.098","-71.098","42.313",22,22,29,7,7,7,7,"Boston - Rafael Hernandez","61 School Street, Roxbury, MA 02119"
7,"42.316 -71.084","-71.084","42.316",276,304,271,-33,-5,33,5,"Boston - Boston Latin Academy","205 Townsend Street, Dorchester, MA 02121"
7,"42.317 -71.044","-71.044","42.317",252,180,199,19,-53,19,53,"Boston - John W McCormack","315 Mt Vernon Street, Dorchester, MA 02125"
7,"42.317 -71.081","-71.081","42.317",0,0,72,72,72,72,72,"KIPP Academy Boston Charter School (District) - KIPP Academy Boston Charter School","384 Warren Street, Boston, MA 02119"
7,"42.318 -71.113","-71.113","42.318",221,81,85,4,-136,4,136,"Boston - Mary E Curley Middle","493 Centre St, Jamaica Plain, MA 02130"
7,"42.320 -71.086","-71.086","42.320",95,0,0,0,-95,0,95,"Boston - Lewis Middle School","131 Walnut Avenue, Roxbury, MA 02119"
7,"42.321 -71.060","-71.060","42.321",66,95,95,0,29,0,29,"Boston Collegiate Charter (District) - Boston Collegiate Charter School","11 Mayhew Street, Dorchester, MA 02125"
7,"42.321 -71.085","-71.085","42.321",0,66,28,-38,28,38,28,"Boston - Higginson/Lewis K-8","131 Walnut Avenue, Roxbury, MA 02119"
7,"42.327 -71.105","-71.105","42.327",65,89,235,146,170,146,170,"Roxbury Preparatory Charter (District) - Roxbury Preparatory Charter School","120 Fisher Avenue, Roxbury, MA 02120"
7,"42.330 -71.077","-71.077","42.330",107,87,81,-6,-26,6,26,"Boston - Orchard Gardens ","906 Albany Street, Roxbury, MA 02119"
7,"42.330 -71.091","-71.091","42.330",222,193,155,-38,-67,38,67,"Boston - James P Timilty Middle","205 Roxbury Street, Roxbury, MA 02119"
7,"42.331 -71.088","-71.088","42.331",132,85,149,64,17,64,17,"Boston - OBryant School Math/Science","55 Malcolm X Blvd, Roxbury, MA 02120"
7,"42.332 -71.030","-71.030","42.332",0,24,17,-7,17,7,17,"Boston - Oliver Hazard Perry","745 E. 7th Street, South Boston, MA 02127"
7,"42.333 -71.050","-71.050","42.333",185,143,140,-3,-45,3,45,"UP Academy Charter School of Boston - UP Academy Charter School of Boston","215 Dorchester Street, South Boston, MA 02127"
7,"42.333 -71.098","-71.098","42.333",27,38,23,-15,-4,15,4,"Boston - Maurice J Tobin","40 Smith St, Roxbury, MA 02120"
7,"42.337 -71.101","-71.101","42.337",417,369,406,37,-11,37,11,"Boston - Boston Latin","78 Avenue Louis Pasteur, Boston, MA 02115"
7,"42.339 -71.035","-71.035","42.339",39,0,0,0,-39,0,39,"Uphams Corner Charter - Uphams Corner Charter School","7 Elkins Street, Boston, MA 02127"
7,"42.339 -71.077","-71.077","42.339",0,12,18,6,18,6,18,"Boston - Joseph J Hurley","70 Worcester Street, Boston, MA 02118"
7,"42.340 -71.084","-71.084","42.340",0,0,1,1,1,1,1,"Boston - Carter Develop Day Care","396 Northampton Street, Boston, MA 02118"
7,"42.344 -71.073","-71.073","42.344",40,27,27,0,-13,0,13,"Boston - William McKinley","90 Warren Avenue, Boston, MA 02116"
7,"42.345 -71.160","-71.160","42.345",179,102,72,-30,-107,30,107,"Boston - Thomas A Edison Jr High","60 Glenmont Road, Brighton, MA 02135"
7,"42.348 -71.069","-71.069","42.348",80,80,68,-12,-12,12,12,"Boston - Quincy Upper School","152 Arlington Street, Boston, MA 02116"
7,"42.351 -71.137","-71.137","42.351",15,78,71,-7,56,7,56,"Boston - Horace Mann School for the Deaf","40 Armington  Street, Allston, MA 02134"
7,"42.351 -71.161","-71.161","42.351",13,14,14,0,1,0,1,"Boston - Lyon K-8","50 Beechcroft Street, Brighton, MA 02135"
7,"42.352 -71.120","-71.120","42.352",0,73,84,11,84,11,84,"Media and Technology Charter - Media and Technology Charter School","1001 Commonwealth Avenue, Boston, MA 02215"
7,"42.356 -71.069","-71.069","42.356",161,0,0,0,-161,0,161,"Boston - Grover Cleveland","11 Charles St, Boston, MA 02114"
7,"42.360 -71.133","-71.133","42.360",0,0,37,37,37,37,37,"Boston - Thomas Gardner","30 Athol Street, Allston, MA 02134"
7,"42.366 -71.053","-71.053","42.366",0,32,22,-10,22,10,22,"Boston - Eliot Elementary","16 Charter Street, Boston, MA 02113"
7,"42.378 -71.040","-71.040","42.378",214,157,136,-21,-78,21,78,"Boston - Mario Umana Middle School Academy","312 Border St, East Boston, MA 02128"
7,"42.378 -71.064","-71.064","42.378",0,48,21,-27,21,27,21,"Boston - Warren-Prescott","50 School Street, Charlestown, MA 02129"
7,"42.379 -71.066","-71.066","42.379",151,167,127,-40,-24,40,24,"Boston - Clarence R Edwards Middle","28 Walker Street, Charlestown, MA 02129"
7,"42.382 -71.016","-71.016","42.382",0,0,36,36,36,36,36,"Brooke Charter School East Boston - Brooke Charter School East Boston","94 Horace, East Boston, MA 02128"
7,"42.382 -71.018","-71.018","42.382",99,54,167,113,68,113,68,"Excel Academy Charter - Excel Academy Charter School","58 Moore Street, East Boston, MA 02128"
7,"42.390 -71.027","-71.027","42.390",31,54,57,3,26,3,26,"Boston - Donald Mckay","122 Cottage Street, East Boston, MA 02128"
8,"42.242 -71.123","-71.123","42.242",0,0,46,46,46,46,46,"Boston - Franklin D Roosevelt","95 Needham Road, Hyde Park, MA 02136"
8,"42.246 -71.131","-71.131","42.246",53,65,78,13,25,13,25,"Academy Of the Pacific Rim Charter Public (District) - Academy Of the Pacific Rim Charter Public School","1 Westinghouse Plaza, Hyde Park, MA 02136"
8,"42.250 -71.126","-71.126","42.250",78,0,0,0,-78,0,78,"Boston Renaissance Charter Public (District) - Boston Renaissance Charter  Public School","1415 Hyde Park Ave, Hyde Park, MA 02136"
8,"42.254 -71.123","-71.123","42.254",0,67,58,-9,58,9,58,"Boston Preparatory Charter Public - Boston Preparatory Charter Public School","1286 Hyde Park Avenue, Hyde Park, MA 02136"
8,"42.258 -71.122","-71.122","42.258",194,174,175,1,-19,1,19,"Boston - Wm B Rogers Middle","15 Everett Street, Hyde Park, MA 02136"
8,"42.261 -71.148","-71.148","42.261",0,0,98,98,98,98,98,"Boston - William H Ohrenberger","175 West  Boundary Road, West Roxbury, MA 02132"
8,"42.271 -71.163","-71.163","42.271",0,21,24,3,24,3,24,"Boston - Joyce Kilmer","35 Baker Street, West Roxbury, MA 02132"
8,"42.275 -71.091","-71.091","42.275",0,202,106,-96,106,96,106,"Boston - Mildred Avenue K-8","5 Mildred Avenue, Mattapan, MA 02126"
8,"42.276 -71.066","-71.066","42.276",0,0,12,12,12,12,12,"Conservatory Lab Charter - Conservatory Lab Charter School","2120 Dorchester Avenue, Dorchester, MA 02124"
8,"42.276 -71.090","-71.090","42.276",248,0,0,0,-248,0,248,"Boston - Mildred Avenue Middle School","5 Mildred Ave, Boston, MA 02126"
8,"42.280 -71.069","-71.069","42.280",183,0,0,0,-183,0,183,"Boston - Woodrow Wilson Middle","18 Croftland Ave, Dorchester, MA 02124"
8,"42.281 -71.069","-71.069","42.281",77,92,69,-23,-8,23,8,"Boston - Harbor School","18 Croftland Av  , Dorchester, MA 02124"
8,"42.281 -71.093","-71.093","42.281",158,115,53,-62,-105,62,105,"Boston - Solomon Lewenberg Middle","20 Outlook Rd, Mattapan, MA 02126"
8,"42.281 -71.121","-71.121","42.281",81,0,0,0,-81,0,81,"Frederick Douglass Charter - Frederick Douglass Charter School","190 Cummins Highway,Roslindale,MA,02131"
8,"42.281 -71.122","-71.122","42.281",0,28,35,7,35,7,35,"Edward Brooke Charter - Edward Brooke Charter School","190 Cummins Highway, Roslindale, MA 02131"
8,"42.282 -71.158","-71.158","42.282",40,30,32,2,-8,2,8,"Boston - Lyndon","20 Mt. Vernon Street, West Roxbury, MA 02132"
8,"42.283 -71.125","-71.125","42.283",243,206,136,-70,-107,70,107,"Boston - Washington Irving Middle","105 Cummins Highway, Roslindale, MA 02131"
8,"42.285 -71.075","-71.075","42.285",0,143,0,-143,0,143,0,"Boston - TechBoston Upper Academy","9 Peacevale Road, Dorchester, MA 02124"
8,"42.287 -71.076","-71.076","42.287",0,0,140,140,140,140,140,"Boston - TechBoston Academy","9 Peacevale Road, Dorchester, MA 02124"
8,"42.292 -71.080","-71.080","42.292",0,0,63,63,63,63,63,"Boston - Joseph Lee","155 Talbot Avenue, Dorchester, MA 02124"
8,"42.293 -71.053","-71.053","42.293",22,35,31,-4,9,4,9,"Neighborhood House Charter (District) - Neighborhood House Charter School","21 Queen Street, Dorchester, MA 02122"
8,"42.294 -71.049","-71.049","42.294",59,58,91,33,32,33,32,"Boston - Richard J Murphy","1 Worrell Street, Dorchester, MA 02122"
8,"42.294 -71.115","-71.115","42.294",0,0,56,56,56,56,56,"Boston - Boston Teachers Union School","25 Walk Hill Street, Jamaica Plain, MA 02130"
8,"42.295 -71.091","-71.091","42.295",0,0,24,24,24,24,24,"Brooke Charter School Mattapan - Brooke Charter School Mattapan","150 American Legion Highway, Boston, MA 02124"
8,"42.296 -71.080","-71.080","42.296",22,16,30,14,8,14,8,"Boston - Sarah Greenwood","189 Glenway Street, Dorchester, MA 02121"
8,"42.301 -71.058","-71.058","42.301",0,66,71,5,71,5,71,"Helen Y. Davis Leadership Academy Charter Public (District) - Helen Y. Davis Leadership Academy Charter Public School","23 Leonard Street, Boston, MA 02122"
8,"42.307 -71.081","-71.081","42.307",179,137,70,-67,-109,67,109,"Boston - Jeremiah E Burke High","60 Washington Street, Dorchester, MA 02121"
8,"42.307 -71.113","-71.113","42.307",10,14,21,7,11,7,11,"Boston - Margarita Muniz Academy","20 Child Street, Boston, MA 02130"
8,"42.308 -71.074","-71.074","42.308",186,227,221,-6,35,6,35,"Boston - Lilla G. Frederick Middle School","270 Columbia Road, Dorchester, MA 02121"
8,"42.311 -71.063","-71.063","42.311",0,0,37,37,37,37,37,"Dorchester Collegiate Academy Charter - Dorchester Collegiate Academy Charter","131 HANCOCK ST, DORCHESTER, MA 02125"
8,"42.311 -71.076","-71.076","42.311",100,67,24,-43,-76,43,76,"Boston - Martin Luther King Jr Mid","77 Lawrence Ave., Dorchester, MA 02121"
8,"42.313 -71.098","-71.098","42.313",22,24,28,4,6,4,6,"Boston - Rafael Hernandez","61 School Street, Roxbury, MA 02119"
8,"42.316 -71.084","-71.084","42.316",289,275,278,3,-11,3,11,"Boston - Boston Latin Academy","205 Townsend Street, Dorchester, MA 02121"
8,"42.317 -71.044","-71.044","42.317",230,208,203,-5,-27,5,27,"Boston - John W McCormack","315 Mt Vernon Street, Dorchester, MA 02125"
8,"42.318 -71.113","-71.113","42.318",216,109,114,5,-102,5,102,"Boston - Mary E Curley Middle","493 Centre St, Jamaica Plain, MA 02130"
8,"42.320 -71.086","-71.086","42.320",86,0,0,0,-86,0,86,"Boston - Lewis Middle School","131 Walnut Avenue, Roxbury, MA 02119"
8,"42.321 -71.060","-71.060","42.321",44,62,94,32,50,32,50,"Boston Collegiate Charter (District) - Boston Collegiate Charter School","11 Mayhew Street, Dorchester, MA 02125"
8,"42.321 -71.085","-71.085","42.321",0,61,29,-32,29,32,29,"Boston - Higginson/Lewis K-8","131 Walnut Avenue, Roxbury, MA 02119"
8,"42.327 -71.105","-71.105","42.327",51,57,156,99,105,99,105,"Roxbury Preparatory Charter (District) - Roxbury Preparatory Charter School","120 Fisher Avenue, Roxbury, MA 02120"
8,"42.330 -71.077","-71.077","42.330",69,89,86,-3,17,3,17,"Boston - Orchard Gardens ","906 Albany Street, Roxbury, MA 02119"
8,"42.330 -71.091","-71.091","42.330",203,202,186,-16,-17,16,17,"Boston - James P Timilty Middle","205 Roxbury Street, Roxbury, MA 02119"
8,"42.331 -71.088","-71.088","42.331",155,118,143,25,-12,25,12,"Boston - OBryant School Math/Science","55 Malcolm X Blvd, Roxbury, MA 02120"
8,"42.332 -71.030","-71.030","42.332",0,27,32,5,32,5,32,"Boston - Oliver Hazard Perry","745 E. 7th Street, South Boston, MA 02127"
8,"42.333 -71.050","-71.050","42.333",222,182,171,-11,-51,11,51,"UP Academy Charter School of Boston - UP Academy Charter School of Boston","215 Dorchester Street, South Boston, MA 02127"
8,"42.333 -71.098","-71.098","42.333",25,31,26,-5,1,5,1,"Boston - Maurice J Tobin","40 Smith St, Roxbury, MA 02120"
8,"42.337 -71.101","-71.101","42.337",379,404,412,8,33,8,33,"Boston - Boston Latin","78 Avenue Louis Pasteur, Boston, MA 02115"
8,"42.339 -71.077","-71.077","42.339",0,0,13,13,13,13,13,"Boston - Joseph J Hurley","70 Worcester Street, Boston, MA 02118"
8,"42.340 -71.084","-71.084","42.340",0,5,5,0,5,0,5,"Boston - Carter Develop Day Care","396 Northampton Street, Boston, MA 02118"
8,"42.344 -71.073","-71.073","42.344",44,52,29,-23,-15,23,15,"Boston - William McKinley","90 Warren Avenue, Boston, MA 02116"
8,"42.345 -71.160","-71.160","42.345",215,116,116,0,-99,0,99,"Boston - Thomas A Edison Jr High","60 Glenmont Road, Brighton, MA 02135"
8,"42.348 -71.069","-71.069","42.348",73,62,72,10,-1,10,1,"Boston - Quincy Upper School","152 Arlington Street, Boston, MA 02116"
8,"42.351 -71.137","-71.137","42.351",11,71,77,6,66,6,66,"Boston - Horace Mann School for the Deaf","40 Armington  Street, Allston, MA 02134"
8,"42.351 -71.161","-71.161","42.351",13,16,19,3,6,3,6,"Boston - Lyon K-8","50 Beechcroft Street, Brighton, MA 02135"
8,"42.352 -71.120","-71.120","42.352",0,0,87,87,87,87,87,"Media and Technology Charter - Media and Technology Charter School","1001 Commonwealth Avenue, Boston, MA 02215"
8,"42.356 -71.069","-71.069","42.356",180,0,0,0,-180,0,180,"Boston - Grover Cleveland","11 Charles St, Boston, MA 02114"
8,"42.360 -71.133","-71.133","42.360",0,0,35,35,35,35,35,"Boston - Thomas Gardner","30 Athol Street, Allston, MA 02134"
8,"42.366 -71.053","-71.053","42.366",0,17,31,14,31,14,31,"Boston - Eliot Elementary","16 Charter Street, Boston, MA 02113"
8,"42.378 -71.040","-71.040","42.378",274,187,148,-39,-126,39,126,"Boston - Mario Umana Middle School Academy","312 Border St, East Boston, MA 02128"
8,"42.378 -71.064","-71.064","42.378",0,37,47,10,47,10,47,"Boston - Warren-Prescott","50 School Street, Charlestown, MA 02129"
8,"42.379 -71.066","-71.066","42.379",173,105,168,63,-5,63,5,"Boston - Clarence R Edwards Middle","28 Walker Street, Charlestown, MA 02129"
8,"42.382 -71.018","-71.018","42.382",0,50,102,52,102,52,102,"Excel Academy Charter - Excel Academy Charter School","58 Moore Street, East Boston, MA 02128"
8,"42.390 -71.027","-71.027","42.390",40,59,88,29,48,29,48,"Boston - Donald Mckay","122 Cottage Street, East Boston, MA 02128"
9,"42.246 -71.131","-71.131","42.246",50,49,52,3,2,3,2,"Academy Of the Pacific Rim Charter Public (District) - Academy Of the Pacific Rim Charter Public School","1 Westinghouse Plaza, Hyde Park, MA 02136"
9,"42.254 -71.123","-71.123","42.254",0,56,75,19,75,19,75,"Boston Preparatory Charter Public - Boston Preparatory Charter Public School","1286 Hyde Park Avenue, Hyde Park, MA 02136"
9,"42.262 -71.117","-71.117","42.262",642,455,327,-128,-315,128,315,"Boston - The Engineering School","655 Metropolitan Avenue, Hyde Park, MA 02136"
9,"42.281 -71.069","-71.069","42.281",0,0,71,71,71,71,71,"Boston - Harbor School","18 Croftland Av  , Dorchester, MA 02124"
9,"42.281 -71.080","-71.080","42.281",41,35,175,140,134,140,134,"Boston - Boston International  High School","100 Maxwell St, Dorchester, MA 02124"
9,"42.281 -71.121","-71.121","42.281",71,0,0,0,-71,0,71,"Frederick Douglass Charter - Frederick Douglass Charter School","190 Cummins Highway,Roslindale,MA,02131"
9,"42.282 -71.174","-71.174","42.282",517,393,277,-116,-240,116,240,"Boston - West Roxbury Academy","1205 V.F.W. Parkway, West Roxbury, MA 02132"
9,"42.285 -71.075","-71.075","42.285",280,94,0,-94,-280,94,280,"Boston - TechBoston Upper Academy","9 Peacevale Road, Dorchester, MA 02124"
9,"42.287 -71.076","-71.076","42.287",0,0,168,168,168,168,168,"Boston - TechBoston Academy","9 Peacevale Road, Dorchester, MA 02124"
9,"42.296 -71.072","-71.072","42.296",34,53,49,-4,15,4,15,"Codman Academy Charter Public (District) - Codman Academy Charter Public School","637 Washington Street, Dorchester, MA 02124"
9,"42.300 -71.061","-71.061","42.300",0,257,191,-66,191,66,191,"Boston - Dorchester Academy","11 Charles St, Dorchester, MA 02125"
9,"42.306 -71.108","-71.108","42.306",371,225,192,-33,-179,33,179,"Boston - The English High","144 McBride Street, Jamaica Plain, MA 02130"
9,"42.307 -71.081","-71.081","42.307",263,282,201,-81,-62,81,62,"Boston - Jeremiah E Burke High","60 Washington Street, Dorchester, MA 02121"
9,"42.307 -71.113","-71.113","42.307",0,0,84,84,84,84,84,"Boston - Margarita Muniz Academy","20 Child Street, Boston, MA 02130"
9,"42.308 -71.103","-71.103","42.308",10,5,8,3,-2,3,2,"Boston - Community Academy","25 Glen Road, Jamaica Plain, MA 02130"
9,"42.314 -71.099","-71.099","42.314",15,7,7,0,-8,0,8,"Boston - Greater Egleston Community High School","80 School St, Roxbury, MA 02119"
9,"42.316 -71.084","-71.084","42.316",302,316,336,20,34,20,34,"Boston - Boston Latin Academy","205 Townsend Street, Dorchester, MA 02121"
9,"42.321 -71.060","-71.060","42.321",37,50,86,36,49,36,49,"Boston Collegiate Charter (District) - Boston Collegiate Charter School","11 Mayhew Street, Dorchester, MA 02125"
9,"42.323 -71.087","-71.087","42.323",174,130,109,-21,-65,21,65,"City on a Hill Charter Public School Circuit Street (District) - City on a Hill Charter Public School Circuit Street","58 Circuit Street, Roxbury, MA 02119"
9,"42.327 -71.081","-71.081","42.327",80,42,79,37,-1,37,1,"Boston Day and Evening Academy Charter - Boston Day and Evening Academy Charter School","20 Kearsarge Ave, Roxbury, MA 02119"
9,"42.329 -71.086","-71.086","42.329",485,423,158,-265,-327,265,327,"Boston - Madison Park High","75 Malcolm X Blvd, Roxbury, MA 02120"
9,"42.331 -71.082","-71.082","42.331",0,0,137,137,137,137,137,"City on a Hill Charter Public School Dudley Square (District) - City on a Hill Charter Public School Dudley Square","2181 Washington Street, Roxbury , MA 02119"
9,"42.331 -71.088","-71.088","42.331",263,328,323,-5,60,5,60,"Boston - OBryant School Math/Science","55 Malcolm X Blvd, Roxbury, MA 02120"
9,"42.332 -71.044","-71.044","42.332",285,180,0,-180,-285,180,285,"Boston - Odyssey High School","95 G Street, South Boston, MA 02127"
9,"42.337 -71.101","-71.101","42.337",438,413,448,35,10,35,10,"Boston - Boston Latin","78 Avenue Louis Pasteur, Boston, MA 02115"
9,"42.340 -71.084","-71.084","42.340",2,1,3,2,1,2,1,"Boston - Carter Develop Day Care","396 Northampton Street, Boston, MA 02118"
9,"42.340 -71.094","-71.094","42.340",73,42,104,62,31,62,31,"Edward M. Kennedy Academy for Health Careers - Edward M. Kennedy Academy for Health Careers","360 Huntington Avenue, c/o 102 Cahners Hall, Boston, MA 02115"
9,"42.344 -71.073","-71.073","42.344",64,73,43,-30,-21,30,21,"Boston - William McKinley","90 Warren Avenue, Boston, MA 02116"
9,"42.346 -71.094","-71.094","42.346",175,192,183,-9,8,9,8,"Boston - Fenway High School","174 Ipswich Street, Boston, MA 02215"
9,"42.348 -71.068","-71.068","42.348",3,2,0,-2,-3,2,3,"Boston - Boston Adult Academy","20 Church St, Back Bay, MA 02116"
9,"42.348 -71.069","-71.069","42.348",56,65,45,-20,-11,20,11,"Boston - Quincy Upper School","152 Arlington Street, Boston, MA 02116"
9,"42.349 -71.145","-71.145","42.349",353,315,231,-84,-122,84,122,"Boston - Brighton High","25 Warren Street, Brighton, MA 02135"
9,"42.350 -71.077","-71.077","42.350",172,118,140,22,-32,22,32,"Boston - Snowden International School at Copley","150 Newbury Street, Boston, MA 02116"
9,"42.350 -71.145","-71.145","42.350",70,49,133,84,63,84,63,"Boston - Another Course To College","20 Warren Street, Brighton, MA 02135"
9,"42.351 -71.137","-71.137","42.351",4,6,6,0,2,0,2,"Boston - Horace Mann School for the Deaf","40 Armington  Street, Allston, MA 02134"
9,"42.352 -71.120","-71.120","42.352",96,72,91,19,-5,19,5,"Media and Technology Charter - Media and Technology Charter School","1001 Commonwealth Avenue, Boston, MA 02215"
9,"42.352 -71.160","-71.160","42.352",0,18,31,13,31,13,31,"Boston - Lyon Upper 9-12","95 Beechcroft Street, Brighton, MA 02135"
9,"42.380 -71.034","-71.034","42.380",444,386,464,78,20,78,20,"Boston - East Boston High","86 White Street, East Boston, MA 02128"
9,"42.380 -71.060","-71.060","42.380",379,224,277,53,-102,53,102,"Boston - Charlestown High","240 Medford Street, Charlestown, MA 02129"
10,"42.246 -71.131","-71.131","42.246",30,49,56,7,26,7,26,"Academy Of the Pacific Rim Charter Public (District) - Academy Of the Pacific Rim Charter Public School","1 Westinghouse Plaza, Hyde Park, MA 02136"
10,"42.254 -71.123","-71.123","42.254",0,27,53,26,53,26,53,"Boston Preparatory Charter Public - Boston Preparatory Charter Public School","1286 Hyde Park Avenue, Hyde Park, MA 02136"
10,"42.262 -71.117","-71.117","42.262",505,438,327,-111,-178,111,178,"Boston - The Engineering School","655 Metropolitan Avenue, Hyde Park, MA 02136"
10,"42.281 -71.069","-71.069","42.281",0,0,22,22,22,22,22,"Boston - Harbor School","18 Croftland Av  , Dorchester, MA 02124"
10,"42.281 -71.080","-71.080","42.281",61,56,82,26,21,26,21,"Boston - Boston International  High School","100 Maxwell St, Dorchester, MA 02124"
10,"42.281 -71.121","-71.121","42.281",54,0,0,0,-54,0,54,"Frederick Douglass Charter - Frederick Douglass Charter School","190 Cummins Highway,Roslindale,MA,02131"
10,"42.282 -71.174","-71.174","42.282",314,314,244,-70,-70,70,70,"Boston - West Roxbury Academy","1205 V.F.W. Parkway, West Roxbury, MA 02132"
10,"42.285 -71.075","-71.075","42.285",220,120,0,-120,-220,120,220,"Boston - TechBoston Upper Academy","9 Peacevale Road, Dorchester, MA 02124"
10,"42.287 -71.076","-71.076","42.287",0,0,153,153,153,153,153,"Boston - TechBoston Academy","9 Peacevale Road, Dorchester, MA 02124"
10,"42.296 -71.072","-71.072","42.296",30,27,40,13,10,13,10,"Codman Academy Charter Public (District) - Codman Academy Charter Public School","637 Washington Street, Dorchester, MA 02124"
10,"42.300 -71.061","-71.061","42.300",0,175,170,-5,170,5,170,"Boston - Dorchester Academy","11 Charles St, Dorchester, MA 02125"
10,"42.306 -71.108","-71.108","42.306",320,213,111,-102,-209,102,209,"Boston - The English High","144 McBride Street, Jamaica Plain, MA 02130"
10,"42.307 -71.081","-71.081","42.307",198,180,126,-54,-72,54,72,"Boston - Jeremiah E Burke High","60 Washington Street, Dorchester, MA 02121"
10,"42.307 -71.113","-71.113","42.307",0,0,72,72,72,72,72,"Boston - Margarita Muniz Academy","20 Child Street, Boston, MA 02130"
10,"42.308 -71.103","-71.103","42.308",8,16,14,-2,6,2,6,"Boston - Community Academy","25 Glen Road, Jamaica Plain, MA 02130"
10,"42.314 -71.099","-71.099","42.314",10,18,42,24,32,24,32,"Boston - Greater Egleston Community High School","80 School St, Roxbury, MA 02119"
10,"42.316 -71.084","-71.084","42.316",247,313,297,-16,50,16,50,"Boston - Boston Latin Academy","205 Townsend Street, Dorchester, MA 02121"
10,"42.321 -71.060","-71.060","42.321",22,46,83,37,61,37,61,"Boston Collegiate Charter (District) - Boston Collegiate Charter School","11 Mayhew Street, Dorchester, MA 02125"
10,"42.323 -71.087","-71.087","42.323",87,61,75,14,-12,14,12,"City on a Hill Charter Public School Circuit Street (District) - City on a Hill Charter Public School Circuit Street","58 Circuit Street, Roxbury, MA 02119"
10,"42.327 -71.081","-71.081","42.327",17,58,33,-25,16,25,16,"Boston Day and Evening Academy Charter - Boston Day and Evening Academy Charter School","20 Kearsarge Ave, Roxbury, MA 02119"
10,"42.329 -71.086","-71.086","42.329",437,378,277,-101,-160,101,160,"Boston - Madison Park High","75 Malcolm X Blvd, Roxbury, MA 02120"
10,"42.331 -71.082","-71.082","42.331",0,0,55,55,55,55,55,"City on a Hill Charter Public School Dudley Square (District) - City on a Hill Charter Public School Dudley Square","2181 Washington Street, Roxbury , MA 02119"
10,"42.331 -71.088","-71.088","42.331",265,235,298,63,33,63,33,"Boston - OBryant School Math/Science","55 Malcolm X Blvd, Roxbury, MA 02120"
10,"42.332 -71.044","-71.044","42.332",186,176,0,-176,-186,176,186,"Boston - Odyssey High School","95 G Street, South Boston, MA 02127"
10,"42.337 -71.101","-71.101","42.337",421,423,395,-28,-26,28,26,"Boston - Boston Latin","78 Avenue Louis Pasteur, Boston, MA 02115"
10,"42.340 -71.084","-71.084","42.340",1,1,3,2,2,2,2,"Boston - Carter Develop Day Care","396 Northampton Street, Boston, MA 02118"
10,"42.340 -71.094","-71.094","42.340",45,76,94,18,49,18,49,"Edward M. Kennedy Academy for Health Careers - Edward M. Kennedy Academy for Health Careers","360 Huntington Avenue, c/o 102 Cahners Hall, Boston, MA 02115"
10,"42.344 -71.073","-71.073","42.344",94,75,54,-21,-40,21,40,"Boston - William McKinley","90 Warren Avenue, Boston, MA 02116"
10,"42.346 -71.094","-71.094","42.346",167,188,207,19,40,19,40,"Boston - Fenway High School","174 Ipswich Street, Boston, MA 02215"
10,"42.348 -71.068","-71.068","42.348",4,16,0,-16,-4,16,4,"Boston - Boston Adult Academy","20 Church St, Back Bay, MA 02116"
10,"42.348 -71.069","-71.069","42.348",59,61,56,-5,-3,5,3,"Boston - Quincy Upper School","152 Arlington Street, Boston, MA 02116"
10,"42.349 -71.145","-71.145","42.349",374,249,251,2,-123,2,123,"Boston - Brighton High","25 Warren Street, Brighton, MA 02135"
10,"42.350 -71.077","-71.077","42.350",129,113,88,-25,-41,25,41,"Boston - Snowden International School at Copley","150 Newbury Street, Boston, MA 02116"
10,"42.350 -71.145","-71.145","42.350",63,52,143,91,80,91,80,"Boston - Another Course To College","20 Warren Street, Brighton, MA 02135"
10,"42.351 -71.137","-71.137","42.351",0,8,8,0,8,0,8,"Boston - Horace Mann School for the Deaf","40 Armington  Street, Allston, MA 02134"
10,"42.352 -71.120","-71.120","42.352",38,67,76,9,38,9,38,"Media and Technology Charter - Media and Technology Charter School","1001 Commonwealth Avenue, Boston, MA 02215"
10,"42.352 -71.160","-71.160","42.352",0,0,35,35,35,35,35,"Boston - Lyon Upper 9-12","95 Beechcroft Street, Brighton, MA 02135"
10,"42.380 -71.034","-71.034","42.380",434,334,387,53,-47,53,47,"Boston - East Boston High","86 White Street, East Boston, MA 02128"
10,"42.380 -71.060","-71.060","42.380",332,213,200,-13,-132,13,132,"Boston - Charlestown High","240 Medford Street, Charlestown, MA 02129"
11,"42.246 -71.131","-71.131","42.246",25,44,58,14,33,14,33,"Academy Of the Pacific Rim Charter Public (District) - Academy Of the Pacific Rim Charter Public School","1 Westinghouse Plaza, Hyde Park, MA 02136"
11,"42.254 -71.123","-71.123","42.254",0,15,45,30,45,30,45,"Boston Preparatory Charter Public - Boston Preparatory Charter Public School","1286 Hyde Park Avenue, Hyde Park, MA 02136"
11,"42.262 -71.117","-71.117","42.262",441,422,384,-38,-57,38,57,"Boston - The Engineering School","655 Metropolitan Avenue, Hyde Park, MA 02136"
11,"42.281 -71.069","-71.069","42.281",0,0,32,32,32,32,32,"Boston - Harbor School","18 Croftland Av  , Dorchester, MA 02124"
11,"42.281 -71.080","-71.080","42.281",39,85,66,-19,27,19,27,"Boston - Boston International  High School","100 Maxwell St, Dorchester, MA 02124"
11,"42.282 -71.174","-71.174","42.282",289,313,297,-16,8,16,8,"Boston - West Roxbury Academy","1205 V.F.W. Parkway, West Roxbury, MA 02132"
11,"42.285 -71.075","-71.075","42.285",162,86,0,-86,-162,86,162,"Boston - TechBoston Upper Academy","9 Peacevale Road, Dorchester, MA 02124"
11,"42.287 -71.076","-71.076","42.287",0,0,138,138,138,138,138,"Boston - TechBoston Academy","9 Peacevale Road, Dorchester, MA 02124"
11,"42.296 -71.072","-71.072","42.296",21,27,25,-2,4,2,4,"Codman Academy Charter Public (District) - Codman Academy Charter Public School","637 Washington Street, Dorchester, MA 02124"
11,"42.300 -71.061","-71.061","42.300",0,243,194,-49,194,49,194,"Boston - Dorchester Academy","11 Charles St, Dorchester, MA 02125"
11,"42.306 -71.108","-71.108","42.306",283,164,121,-43,-162,43,162,"Boston - The English High","144 McBride Street, Jamaica Plain, MA 02130"
11,"42.307 -71.081","-71.081","42.307",175,184,151,-33,-24,33,24,"Boston - Jeremiah E Burke High","60 Washington Street, Dorchester, MA 02121"
11,"42.307 -71.113","-71.113","42.307",0,0,73,73,73,73,73,"Boston - Margarita Muniz Academy","20 Child Street, Boston, MA 02130"
11,"42.308 -71.103","-71.103","42.308",7,14,13,-1,6,1,6,"Boston - Community Academy","25 Glen Road, Jamaica Plain, MA 02130"
11,"42.314 -71.099","-71.099","42.314",21,22,38,16,17,16,17,"Boston - Greater Egleston Community High School","80 School St, Roxbury, MA 02119"
11,"42.316 -71.084","-71.084","42.316",271,294,266,-28,-5,28,5,"Boston - Boston Latin Academy","205 Townsend Street, Dorchester, MA 02121"
11,"42.321 -71.060","-71.060","42.321",17,29,70,41,53,41,53,"Boston Collegiate Charter (District) - Boston Collegiate Charter School","11 Mayhew Street, Dorchester, MA 02125"
11,"42.323 -71.087","-71.087","42.323",52,46,51,5,-1,5,1,"City on a Hill Charter Public School Circuit Street (District) - City on a Hill Charter Public School Circuit Street","58 Circuit Street, Roxbury, MA 02119"
11,"42.327 -71.081","-71.081","42.327",138,75,102,27,-36,27,36,"Boston Day and Evening Academy Charter - Boston Day and Evening Academy Charter School","20 Kearsarge Ave, Roxbury, MA 02119"
11,"42.329 -71.086","-71.086","42.329",421,313,240,-73,-181,73,181,"Boston - Madison Park High","75 Malcolm X Blvd, Roxbury, MA 02120"
11,"42.331 -71.088","-71.088","42.331",203,216,264,48,61,48,61,"Boston - OBryant School Math/Science","55 Malcolm X Blvd, Roxbury, MA 02120"
11,"42.332 -71.044","-71.044","42.332",157,187,0,-187,-157,187,157,"Boston - Odyssey High School","95 G Street, South Boston, MA 02127"
11,"42.337 -71.101","-71.101","42.337",385,389,415,26,30,26,30,"Boston - Boston Latin","78 Avenue Louis Pasteur, Boston, MA 02115"
11,"42.340 -71.084","-71.084","42.340",2,3,5,2,3,2,3,"Boston - Carter Develop Day Care","396 Northampton Street, Boston, MA 02118"
11,"42.340 -71.094","-71.094","42.340",39,47,74,27,35,27,35,"Edward M. Kennedy Academy for Health Careers - Edward M. Kennedy Academy for Health Careers","360 Huntington Avenue, c/o 102 Cahners Hall, Boston, MA 02115"
11,"42.344 -71.073","-71.073","42.344",50,60,59,-1,9,1,9,"Boston - William McKinley","90 Warren Avenue, Boston, MA 02116"
11,"42.346 -71.094","-71.094","42.346",164,186,203,17,39,17,39,"Boston - Fenway High School","174 Ipswich Street, Boston, MA 02215"
11,"42.348 -71.068","-71.068","42.348",50,53,58,5,8,5,8,"Boston - Boston Adult Academy","20 Church St, Back Bay, MA 02116"
11,"42.348 -71.069","-71.069","42.348",25,39,52,13,27,13,27,"Boston - Quincy Upper School","152 Arlington Street, Boston, MA 02116"
11,"42.349 -71.145","-71.145","42.349",328,292,233,-59,-95,59,95,"Boston - Brighton High","25 Warren Street, Brighton, MA 02135"
11,"42.350 -71.077","-71.077","42.350",51,102,93,-9,42,9,42,"Boston - Snowden International School at Copley","150 Newbury Street, Boston, MA 02116"
11,"42.350 -71.145","-71.145","42.350",51,53,136,83,85,83,85,"Boston - Another Course To College","20 Warren Street, Brighton, MA 02135"
11,"42.351 -71.137","-71.137","42.351",8,13,1,-12,-7,12,7,"Boston - Horace Mann School for the Deaf","40 Armington  Street, Allston, MA 02134"
11,"42.352 -71.120","-71.120","42.352",24,37,54,17,30,17,30,"Media and Technology Charter - Media and Technology Charter School","1001 Commonwealth Avenue, Boston, MA 02215"
11,"42.352 -71.160","-71.160","42.352",0,0,36,36,36,36,36,"Boston - Lyon Upper 9-12","95 Beechcroft Street, Brighton, MA 02135"
11,"42.358 -71.061","-71.061","42.358",1,0,0,0,-1,0,1,"Boston - Young Adult Center","PEMBERTON SQUARE, Boston, Massachusetts 02108"
11,"42.380 -71.034","-71.034","42.380",270,274,291,17,21,17,21,"Boston - East Boston High","86 White Street, East Boston, MA 02128"
11,"42.380 -71.060","-71.060","42.380",216,194,224,30,8,30,8,"Boston - Charlestown High","240 Medford Street, Charlestown, MA 02129"
12,"42.246 -71.131","-71.131","42.246",27,33,47,14,20,14,20,"Academy Of the Pacific Rim Charter Public (District) - Academy Of the Pacific Rim Charter Public School","1 Westinghouse Plaza, Hyde Park, MA 02136"
12,"42.254 -71.123","-71.123","42.254",0,0,44,44,44,44,44,"Boston Preparatory Charter Public - Boston Preparatory Charter Public School","1286 Hyde Park Avenue, Hyde Park, MA 02136"
12,"42.262 -71.117","-71.117","42.262",502,371,315,-56,-187,56,187,"Boston - The Engineering School","655 Metropolitan Avenue, Hyde Park, MA 02136"
12,"42.281 -71.080","-71.080","42.281",0,26,58,32,58,32,58,"Boston - Boston International  High School","100 Maxwell St, Dorchester, MA 02124"
12,"42.282 -71.174","-71.174","42.282",256,302,221,-81,-35,81,35,"Boston - West Roxbury Academy","1205 V.F.W. Parkway, West Roxbury, MA 02132"
12,"42.285 -71.075","-71.075","42.285",138,77,0,-77,-138,77,138,"Boston - TechBoston Upper Academy","9 Peacevale Road, Dorchester, MA 02124"
12,"42.287 -71.076","-71.076","42.287",0,0,128,128,128,128,128,"Boston - TechBoston Academy","9 Peacevale Road, Dorchester, MA 02124"
12,"42.296 -71.072","-71.072","42.296",20,19,29,10,9,10,9,"Codman Academy Charter Public (District) - Codman Academy Charter Public School","637 Washington Street, Dorchester, MA 02124"
12,"42.300 -71.061","-71.061","42.300",0,132,166,34,166,34,166,"Boston - Dorchester Academy","11 Charles St, Dorchester, MA 02125"
12,"42.306 -71.108","-71.108","42.306",281,186,133,-53,-148,53,148,"Boston - The English High","144 McBride Street, Jamaica Plain, MA 02130"
12,"42.307 -71.081","-71.081","42.307",181,129,149,20,-32,20,32,"Boston - Jeremiah E Burke High","60 Washington Street, Dorchester, MA 02121"
12,"42.308 -71.103","-71.103","42.308",10,18,27,9,17,9,17,"Boston - Community Academy","25 Glen Road, Jamaica Plain, MA 02130"
12,"42.314 -71.099","-71.099","42.314",37,46,113,67,76,67,76,"Boston - Greater Egleston Community High School","80 School St, Roxbury, MA 02119"
12,"42.316 -71.084","-71.084","42.316",201,257,275,18,74,18,74,"Boston - Boston Latin Academy","205 Townsend Street, Dorchester, MA 02121"
12,"42.321 -71.060","-71.060","42.321",20,31,57,26,37,26,37,"Boston Collegiate Charter (District) - Boston Collegiate Charter School","11 Mayhew Street, Dorchester, MA 02125"
12,"42.323 -71.087","-71.087","42.323",27,48,52,4,25,4,25,"City on a Hill Charter Public School Circuit Street (District) - City on a Hill Charter Public School Circuit Street","58 Circuit Street, Roxbury, MA 02119"
12,"42.327 -71.081","-71.081","42.327",33,104,166,62,133,62,133,"Boston Day and Evening Academy Charter - Boston Day and Evening Academy Charter School","20 Kearsarge Ave, Roxbury, MA 02119"
12,"42.329 -71.086","-71.086","42.329",346,286,224,-62,-122,62,122,"Boston - Madison Park High","75 Malcolm X Blvd, Roxbury, MA 02120"
12,"42.331 -71.088","-71.088","42.331",210,230,238,8,28,8,28,"Boston - OBryant School Math/Science","55 Malcolm X Blvd, Roxbury, MA 02120"
12,"42.332 -71.044","-71.044","42.332",95,144,0,-144,-95,144,95,"Boston - Odyssey High School","95 G Street, South Boston, MA 02127"
12,"42.337 -71.101","-71.101","42.337",391,397,363,-34,-28,34,28,"Boston - Boston Latin","78 Avenue Louis Pasteur, Boston, MA 02115"
12,"42.340 -71.084","-71.084","42.340",18,6,6,0,-12,0,12,"Boston - Carter Develop Day Care","396 Northampton Street, Boston, MA 02118"
12,"42.340 -71.094","-71.094","42.340",42,46,87,41,45,41,45,"Edward M. Kennedy Academy for Health Careers - Edward M. Kennedy Academy for Health Careers","360 Huntington Avenue, c/o 102 Cahners Hall, Boston, MA 02115"
12,"42.344 -71.073","-71.073","42.344",27,47,32,-15,5,15,5,"Boston - William McKinley","90 Warren Avenue, Boston, MA 02116"
12,"42.346 -71.094","-71.094","42.346",154,152,176,24,22,24,22,"Boston - Fenway High School","174 Ipswich Street, Boston, MA 02215"
12,"42.348 -71.068","-71.068","42.348",117,149,133,-16,16,16,16,"Boston - Boston Adult Academy","20 Church St, Back Bay, MA 02116"
12,"42.348 -71.069","-71.069","42.348",0,46,58,12,58,12,58,"Boston - Quincy Upper School","152 Arlington Street, Boston, MA 02116"
12,"42.349 -71.145","-71.145","42.349",272,344,245,-99,-27,99,27,"Boston - Brighton High","25 Warren Street, Brighton, MA 02135"
12,"42.350 -71.077","-71.077","42.350",88,64,67,3,-21,3,21,"Boston - Snowden International School at Copley","150 Newbury Street, Boston, MA 02116"
12,"42.350 -71.145","-71.145","42.350",50,53,135,82,85,82,85,"Boston - Another Course To College","20 Warren Street, Brighton, MA 02135"
12,"42.351 -71.137","-71.137","42.351",9,4,11,7,2,7,2,"Boston - Horace Mann School for the Deaf","40 Armington  Street, Allston, MA 02134"
12,"42.352 -71.120","-71.120","42.352",28,46,57,11,29,11,29,"Media and Technology Charter - Media and Technology Charter School","1001 Commonwealth Avenue, Boston, MA 02215"
12,"42.352 -71.160","-71.160","42.352",0,0,32,32,32,32,32,"Boston - Lyon Upper 9-12","95 Beechcroft Street, Brighton, MA 02135"
12,"42.380 -71.034","-71.034","42.380",287,368,360,-8,73,8,73,"Boston - East Boston High","86 White Street, East Boston, MA 02128"
12,"42.380 -71.060","-71.060","42.380",286,236,220,-16,-66,16,66,"Boston - Charlestown High","240 Medford Street, Charlestown, MA 02129"
